LON,LAT,NUMBER,STREET,UNIT,CITY,DISTRICT,REGION,POSTCODE,ID,HASH
-74.0310957,40.7498567,1016-18 WILLOW AVE,1016-18 Willow Avenue,,,,,,,
-74.031112,40.7498028,1016-18 WILLOW AVE,1016-18 Willow Avenue,,,,,,,
-74.0311605,40.7498681,1016-18 WILLOW AVE,1016-18 Willow Avenue,,,,,,,
-74.031166,40.7498502,1016-18 WILLOW AVE,1016-18 Willow Avenue,,,,,,,
-74.0312277,40.749861,1016-18 WILLOW AVE,1016-18 Willow Avenue,,,,,,,
-74.0312496,40.7497892,1016-18 WILLOW AVE,1016-18 Willow Avenue,,,,,,,
-74.0309951,40.750172,1030-1032 WILLOW AVE,1030-1032 Willow Avenue,,,,,,,
-74.0310082,40.7501289,1030-1032 WILLOW AVE,1030-1032 Willow Avenue,,,,,,,
-74.0310469,40.7501811,1030-1032 WILLOW AVE,1030-1032 Willow Avenue,,,,,,,
-74.03106,40.7501381,1030-1032 WILLOW AVE,1030-1032 Willow Avenue,,,,,,,
-74.0310965,40.7501898,1030-1032 WILLOW AVE,1030-1032 Willow Avenue,,,,,,,
-74.0311096,40.7501468,1030-1032 WILLOW AVE,1030-1032 Willow Avenue,,,,,,,
-74.0311477,40.7501988,1030-1032 WILLOW AVE,1030-1032 Willow Avenue,,,,,,,
-74.0311608,40.7501559,1030-1032 WILLOW AVE,1030-1032 Willow Avenue,,,,,,,
-74.0300148,40.7512941,1109-1121 WILLOW AVE,1109-1121 Willow Avenue,,,,,,,
-74.030031,40.7512415,1109-1121 WILLOW AVE,1109-1121 Willow Avenue,,,,,,,
-74.0300392,40.7512984,1109-1121 WILLOW AVE,1109-1121 Willow Avenue,,,,,,,
-74.0300554,40.7512458,1109-1121 WILLOW AVE,1109-1121 Willow Avenue,,,,,,,
-74.0300633,40.7513028,1109-1121 WILLOW AVE,1109-1121 Willow Avenue,,,,,,,
-74.0300791,40.7510856,1109-1121 WILLOW AVE,1109-1121 Willow Avenue,,,,,,,
-74.0300795,40.7512502,1109-1121 WILLOW AVE,1109-1121 Willow Avenue,,,,,,,
-74.0300875,40.751307,1109-1121 WILLOW AVE,1109-1121 Willow Avenue,,,,,,,
-74.0300952,40.7510337,1109-1121 WILLOW AVE,1109-1121 Willow Avenue,,,,,,,
-74.0301035,40.75109,1109-1121 WILLOW AVE,1109-1121 Willow Avenue,,,,,,,
-74.0301037,40.7512545,1109-1121 WILLOW AVE,1109-1121 Willow Avenue,,,,,,,
-74.0301196,40.751038,1109-1121 WILLOW AVE,1109-1121 Willow Avenue,,,,,,,
-74.0301197,40.7512026,1109-1121 WILLOW AVE,1109-1121 Willow Avenue,,,,,,,
-74.0301273,40.7509298,1109-1121 WILLOW AVE,1109-1121 Willow Avenue,,,,,,,
-74.0301277,40.7510943,1109-1121 WILLOW AVE,1109-1121 Willow Avenue,,,,,,,
-74.0301279,40.7512588,1109-1121 WILLOW AVE,1109-1121 Willow Avenue,,,,,,,
-74.0301358,40.7513157,1109-1121 WILLOW AVE,1109-1121 Willow Avenue,,,,,,,
-74.0301437,40.7510424,1109-1121 WILLOW AVE,1109-1121 Willow Avenue,,,,,,,
-74.0301439,40.7512069,1109-1121 WILLOW AVE,1109-1121 Willow Avenue,,,,,,,
-74.0301516,40.7509341,1109-1121 WILLOW AVE,1109-1121 Willow Avenue,,,,,,,
-74.0301518,40.7510986,1109-1121 WILLOW AVE,1109-1121 Willow Avenue,,,,,,,
-74.030152,40.7512631,1109-1121 WILLOW AVE,1109-1121 Willow Avenue,,,,,,,
-74.03016,40.75132,1109-1121 WILLOW AVE,1109-1121 Willow Avenue,,,,,,,
-74.0301677,40.7508821,1109-1121 WILLOW AVE,1109-1121 Willow Avenue,,,,,,,
-74.0301679,40.7510466,1109-1121 WILLOW AVE,1109-1121 Willow Avenue,,,,,,,
-74.0301762,40.7512674,1109-1121 WILLOW AVE,1109-1121 Willow Avenue,,,,,,,
-74.030176,40.7511029,1109-1121 WILLOW AVE,1109-1121 Willow Avenue,,,,,,,
-74.0301839,40.7509947,1109-1121 WILLOW AVE,1109-1121 Willow Avenue,,,,,,,
-74.0301918,40.7508865,1109-1121 WILLOW AVE,1109-1121 Willow Avenue,,,,,,,
-74.0301922,40.7512155,1109-1121 WILLOW AVE,1109-1121 Willow Avenue,,,,,,,
-74.030192,40.751051,1109-1121 WILLOW AVE,1109-1121 Willow Avenue,,,,,,,
-74.0302001,40.7511073,1109-1121 WILLOW AVE,1109-1121 Willow Avenue,,,,,,,
-74.0302083,40.7511635,1109-1121 WILLOW AVE,1109-1121 Willow Avenue,,,,,,,
-74.0302162,40.7510553,1109-1121 WILLOW AVE,1109-1121 Willow Avenue,,,,,,,
-74.0302164,40.7512198,1109-1121 WILLOW AVE,1109-1121 Willow Avenue,,,,,,,
-74.0302243,40.7511116,1109-1121 WILLOW AVE,1109-1121 Willow Avenue,,,,,,,
-74.0302324,40.7511679,1109-1121 WILLOW AVE,1109-1121 Willow Avenue,,,,,,,
-74.0302402,40.7508951,1109-1121 WILLOW AVE,1109-1121 Willow Avenue,,,,,,,
-74.0302403,40.7510596,1109-1121 WILLOW AVE,1109-1121 Willow Avenue,,,,,,,
-74.0302,40.7509427,1109-1121 WILLOW AVE,1109-1121 Willow Avenue,,,,,,,
-74.0302483,40.7509513,1109-1121 WILLOW AVE,1109-1121 Willow Avenue,,,,,,,
-74.0302485,40.7511158,1109-1121 WILLOW AVE,1109-1121 Willow Avenue,,,,,,,
-74.0302643,40.7508994,1109-1121 WILLOW AVE,1109-1121 Willow Avenue,,,,,,,
-74.0302724,40.7509557,1109-1121 WILLOW AVE,1109-1121 Willow Avenue,,,,,,,
-74.0302966,40.75096,1109-1121 WILLOW AVE,1109-1121 Willow Avenue,,,,,,,
-74.0457293,40.9095917,112-14 WILLOW AVE,112-14 Willow Avenue,,,,,,,
-74.0458709,40.909674,116-118 WILLOW AVE,116-118 Willow Avenue,,,,,,,
-74.0306271,40.7522892,1200-22 WILLOW AVE,1200-22 Willow Avenue,,,,,,,
-74.0298913,40.7518613,1203-19 WILLOW AVE,1203-19 Willow Avenue,,,,,,,
-74.034486,40.7391813,124-128 WILLOW AVE,124-128 Willow Avenue,,,,,,,
-74.0303798,40.7530992,1300-14 WILLOW AVE,1300-14 Willow Avenue,,,,,,,
-74.0302174,40.7536278,1316-1330 WILLOW AVE,1316-1330 Willow Avenue,,,,,,,
-74.0294169,40.7533902,1317-1319 WILLOW AVE,1317-1319 Willow Avenue,,,,,,,
-74.0292697,40.7539634,1401-1407 WILLOW AVE,1401-1407 Willow Avenue,,,,,,,
-74.0298681,40.7542862,1404-12 WILLOW AVE,1404-12 Willow Avenue,,,,,,,
-74.0290615,40.7541858,1409-11 WILLOW AVE,1409-11 Willow Avenue,,,,,,,
-74.0289533,40.7545357,1413-1425 WILLOW AVE,1413-1425 Willow Avenue,,,,,,,
-74.0298027,40.7545731,1414-1418 WILLOW AVE,1414-1418 Willow Avenue,,,,,,,
-74.0301262,40.7547015,1420-1424 WILLOW AVE,1420-1424 Willow Avenue,,,,,,,
-74.0296893,40.7549405,1426-28 WILLOW AVE,1426-28 Willow Avenue,,,,,,,
-74.029,40.7548791,1427-1429 WILLOW AVE,1427-1429 Willow Avenue,,,,,,,
-74.4406578,40.6111011,147-51 WILLOW AVE,147-51 Willow Avenue,,,,,,,
-74.0289312,40.7551585,1501-1503 WILLOW AVE,1501-1503 Willow Avenue,,,,,,,
-74.0295512,40.7553741,1502-1506 WILLOW AVE,1502-1506 Willow Avenue,,,,,,,
-74.0294981,40.7555438,1508-1510 WILLOW AVE,1508-1510 Willow Avenue,,,,,,,
-74.0298566,40.7555698,1512-1522 WILLOW AVE,1512-1522 Willow Avenue,,,,,,,
-74.0296929,40.7561001,1524-1530 WILLOW AVE,1524-1530 Willow Avenue,,,,,,,
-74.0290739,40.7569045,1612-1614 WILLOW AVE,1612-1614 Willow Avenue,,,,,,,
-74.0293438,40.7572361,1622-28 WILLOW AVE,1622-28 Willow Avenue,,,,,,,
-74.0481542,40.9105049,167-169 WILLOW AV,167-169 Willow Avenue,,,,,,,
-74.0287556,40.7575533,1700-02 WILLOW AVE,1700-02 Willow Avenue,,,,,,,
-74.0289253,40.7580444,1714-16 WILLOW AVE,1714-16 Willow Avenue,,,,,,,
-74.0483302,40.9106156,175-177 WILLOW AVE,175-177 Willow Avenue,,,,,,,
-74.0277841,40.7589287,1801-13 WILLOW AVE,1801-13 Willow Avenue,,,,,,,
-74.048524,40.910733,181-183 WILLOW AV,181-183 Willow Avenue,,,,,,,
-74.0481962,40.9110532,182-184 WILLOW AVE,182-184 Willow Avenue,,,,,,,
-74.0284181,40.7588199,18OO WILLOW AVE,18oo Willow Avenue,,,,,,,
-74.0276085,40.7607567,1917,19 Willow Avenue,,,,,,,
-74.0343628,40.7395888,200-202 WILLOW AVE,200-202 Willow Avenue,,,,,,,
-74.0338013,40.7394257,201-215 WILLOW AVE,201-215 Willow Avenue,,,,,,,
-75.0879504,40.6545943,20-22 WILLOW AVE,20-22 Willow Avenue,,,,,,,
-73.9466805,41.0088084,203-205 WILLOW AVE,203-205 Willow Avenue,,,,,,,
-74.034115,40.739904,208-212 WILLOW AVE,208-212 Willow Avenue,,,,,,,
-74.0341368,40.7398323,208-212 WILLOW AVE,208-212 Willow Avenue,,,,,,,
-74.0341477,40.7397964,208-212 WILLOW AVE,208-212 Willow Avenue,,,,,,,
-74.0341589,40.7399117,208-212 WILLOW AVE,208-212 Willow Avenue,,,,,,,
-74.0341807,40.7398401,208-212 WILLOW AVE,208-212 Willow Avenue,,,,,,,
-74.0341917,40.7398042,208-212 WILLOW AVE,208-212 Willow Avenue,,,,,,,
-74.0342147,40.7399216,208-212 WILLOW AVE,208-212 Willow Avenue,,,,,,,
-74.0342366,40.7398499,208-212 WILLOW AVE,208-212 Willow Avenue,,,,,,,
-74.0342585,40.7397781,208-212 WILLOW AVE,208-212 Willow Avenue,,,,,,,
-74.0342815,40.7398957,208-212 WILLOW AVE,208-212 Willow Avenue,,,,,,,
-74.0342924,40.7398598,208-212 WILLOW AVE,208-212 Willow Avenue,,,,,,,
-74.0340807,40.7400428,214-216 WILLOW AVE,214-216 Willow Avenue,,,,,,,
-74.0340894,40.7400145,214-216 WILLOW AVE,214-216 Willow Avenue,,,,,,,
-74.0340979,40.7399866,214-216 WILLOW AVE,214-216 Willow Avenue,,,,,,,
-74.0341065,40.7399584,214-216 WILLOW AVE,214-216 Willow Avenue,,,,,,,
-74.0341318,40.7400518,214-216 WILLOW AVE,214-216 Willow Avenue,,,,,,,
-74.0341404,40.7400235,214-216 WILLOW AVE,214-216 Willow Avenue,,,,,,,
-74.0341489,40.7399956,214-216 WILLOW AVE,214-216 Willow Avenue,,,,,,,
-74.0341575,40.7399674,214-216 WILLOW AVE,214-216 Willow Avenue,,,,,,,
-74.0341812,40.7400605,214-216 WILLOW AVE,214-216 Willow Avenue,,,,,,,
-74.0341899,40.7400322,214-216 WILLOW AVE,214-216 Willow Avenue,,,,,,,
-74.0341984,40.7400044,214-216 WILLOW AVE,214-216 Willow Avenue,,,,,,,
-74.0342069,40.7399762,214-216 WILLOW AVE,214-216 Willow Avenue,,,,,,,
-74.0342301,40.7400691,214-216 WILLOW AVE,214-216 Willow Avenue,,,,,,,
-74.0342387,40.7400408,214-216 WILLOW AVE,214-216 Willow Avenue,,,,,,,
-74.0342471,40.740013,214-216 WILLOW AVE,214-216 Willow Avenue,,,,,,,
-74.0335713,40.7401779,223-25 WILLOW AVE,223-25 Willow Avenue,,,,,,,
-74.0339788,40.7403711,224-226 WILLOW AVE,224-226 Willow Avenue,,,,,,,
-74.0339937,40.7403225,224-226 WILLOW AVE,224-226 Willow Avenue,,,,,,,
-74.034029,40.7403799,224-226 WILLOW AVE,224-226 Willow Avenue,,,,,,,
-74.0340439,40.7403314,224-226 WILLOW AVE,224-226 Willow Avenue,,,,,,,
-74.0340788,40.7403887,224-226 WILLOW AVE,224-226 Willow Avenue,,,,,,,
-74.0340936,40.7403402,224-226 WILLOW AVE,224-226 Willow Avenue,,,,,,,
-74.0341286,40.7403975,224-226 WILLOW AVE,224-226 Willow Avenue,,,,,,,
-74.0341433,40.740349,224-226 WILLOW AVE,224-226 Willow Avenue,,,,,,,
-74.3200825,40.6511869,225A WILLOW AVE,225a Willow Avenue,,,,,,,
-74.6556461,40.7214392,27-29 WILLOW AVENUE,27-29 Willow Avenue,,,,,,,
-74.0276379,40.7594028,1815,27 Willow Avenue,,,,,,,
-75.0881364,40.6541349,28-30 WILLOW AVE,28-30 Willow Avenue,,,,,,,
-74.0340912,40.7412623,300-336 WILLOW AVE,300-336 Willow Avenue,,,,,,,
-74.5541524,39.4772796,308A WILLOW AVE,308a Willow Avenue,,,,,,,
-74.0333329,40.7409547,309-311 WILLOW AVE,309-311 Willow Avenue,,,,,,,
-74.3224755,40.6508613,311-313 WILLOW AVE,311-313 Willow Avenue,,,,,,,
-74.5550874,39.4760141,319A WILLOW AVE,319a Willow Avenue,,,,,,,
-74.5551576,39.475754,321A WILLOW AVE,321a Willow Avenue,,,,,,,
-74.5545952,39.4755267,322A WILLOW AVE,322a Willow Avenue,,,,,,,
-75.0882557,40.654015,32-34 WILLOW AVE,32-34 Willow Avenue,,,,,,,
-74.5552245,39.4754868,323A WILLOW AVE,323a Willow Avenue,,,,,,,
-74.5546663,39.4752604,324A WILLOW AVE,324a Willow Avenue,,,,,,,
-74.0331244,40.7414814,325-327 WILLOW AVE.,325-327 Willow Avenue,,,,,,,
-74.0331389,40.7414337,325-327 WILLOW AVE.,325-327 Willow Avenue,,,,,,,
-74.0331525,40.741389,325-327 WILLOW AVE.,325-327 Willow Avenue,,,,,,,
-74.0331645,40.7414382,325-327 WILLOW AVE.,325-327 Willow Avenue,,,,,,,
-74.0331745,40.7414902,325-327 WILLOW AVE.,325-327 Willow Avenue,,,,,,,
-74.0331781,40.7413935,325-327 WILLOW AVE.,325-327 Willow Avenue,,,,,,,
-74.033189,40.7414426,325-327 WILLOW AVE.,325-327 Willow Avenue,,,,,,,
-74.0331992,40.7414945,325-327 WILLOW AVE.,325-327 Willow Avenue,,,,,,,
-74.0332027,40.7413978,325-327 WILLOW AVE.,325-327 Willow Avenue,,,,,,,
-74.0332137,40.7414469,325-327 WILLOW AVE.,325-327 Willow Avenue,,,,,,,
-74.0332238,40.7414989,325-327 WILLOW AVE.,325-327 Willow Avenue,,,,,,,
-74.0332273,40.7414021,325-327 WILLOW AVE,325-327 Willow Avenue,,,,,,,
-74.0332383,40.7414512,325-327 WILLOW AVE.,325-327 Willow Avenue,,,,,,,
-74.0332484,40.7415032,325-327 WILLOW AVE.,325-327 Willow Avenue,,,,,,,
-74.0332519,40.7414064,325-327 WILLOW AVE.,325-327 Willow Avenue,,,,,,,
-74.0332731,40.7415075,325-327 WILLOW AVE.,325-327 Willow Avenue,,,,,,,
-74.0332765,40.7414108,325-327 WILLOW AVE.,325-327 Willow Avenue,,,,,,,
-74.0332875,40.7414599,325-327 WILLOW AVE.,325-327 Willow Avenue,,,,,,,
-74.0332976,40.7415119,325-327 WILLOW AVE.,325-327 Willow Avenue,,,,,,,
-74.0333011,40.7414151,325-327 WILLOW AVE.,325-327 Willow Avenue,,,,,,,
-74.0333122,40.7414642,325-327 WILLOW AVE.,325-327 Willow Avenue,,,,,,,
-74.0333223,40.7415162,325-327 WILLOW AVE.,325-327 Willow Avenue,,,,,,,
-74.0333258,40.7414194,325-327 WILLOW AVE.,325-327 Willow Avenue,,,,,,,
-74.0333367,40.7414686,325-327 WILLOW AVE.,325-327 Willow Avenue,,,,,,,
-74.0333504,40.7414238,325-327 WILLOW AVE.,325-327 Willow Avenue,,,,,,,
-74.027509,40.7598162,1831,33 Willow Avenue,,,,,,,
-74.0285328,40.7585822,1732,34 Willow Avenue,,,,,,,
-74.5548372,39.4745058,400A WILLOW AVE,400a Willow Avenue,,,,,,,
-74.5559057,39.4727653,413A WILLOW AVE,413a Willow Avenue,,,,,,,
-74.555609,39.4714112,424A WILLOW AVE,424a Willow Avenue,,,,,,,
-74.5558907,39.4703167,430A WILLOW AVE,430a Willow Avenue,,,,,,,
-74.5570929,39.4680172,453A WILLOW AVE,453a Willow Avenue,,,,,,,
-74.5572129,39.4675363,455A WILLOW AVE,455a Willow Avenue,,,,,,,
-74.5568049,39.4666719,458A WILLOW AVE,458a Willow Avenue,,,,,,,
-74.0331142,40.7439325,524-34 WILLOW AVE,524-34 Willow Avenue,,,,,,,
-74.032464,40.7438189,529-533 WILLOW AVE,529-533 Willow Avenue,,,,,,,
-75.0891461,40.6527204,54-56 WILLOW AVE,54-56 Willow Avenue,,,,,,,
-74.0279398,40.7602547,1903,5 Willow Avenue,,,,,,,
-74.0323018,40.7443452,605-607 WILLOW AVE,605-607 Willow Avenue,,,,,,,
-74.0323145,40.7443032,605-607 WILLOW AVE,605-607 Willow Avenue,,,,,,,
-74.0321467,40.7448196,619-621 WILLOW AVE,619-621 Willow Avenue,,,,,,,
-74.0321571,40.7447857,619-621 WILLOW AVE,619-621 Willow Avenue,,,,,,,
-74.0321672,40.7447526,619-621 WILLOW AVE,619-621 Willow Avenue,,,,,,,
-74.0321769,40.7447207,619-621 WILLOW AVE,619-621 Willow Avenue,,,,,,,
-74.0321813,40.7448257,619-621 WILLOW AVE,619-621 Willow Avenue,,,,,,,
-74.0321916,40.7447918,619-621 WILLOW AVE,619-621 Willow Avenue,,,,,,,
-74.0322017,40.7447587,619-621 WILLOW AVE,619-621 Willow Avenue,,,,,,,
-74.0322115,40.7447268,619-621 WILLOW AVE,619-621 Willow Avenue,,,,,,,
-74.0322198,40.7448325,619-621 WILLOW AVE,619-621 Willow Avenue,,,,,,,
-74.0322302,40.7447986,619-621 WILLOW AVE,619-621 Willow Avenue,,,,,,,
-74.0322403,40.7447654,619-621 WILLOW AVE,619-621 Willow Avenue,,,,,,,
-74.03225,40.7447336,619-621 WILLOW AVE,619-621 Willow Avenue,,,,,,,
-74.0322604,40.7448397,619-621 WILLOW AVE,619-621 Willow Avenue,,,,,,,
-74.0322708,40.7448057,619-621 WILLOW AVE,619-621 Willow Avenue,,,,,,,
-74.0322809,40.7447725,619-621 WILLOW AVE,619-621 Willow Avenue,,,,,,,
-74.0322905,40.7447407,619-621 WILLOW AVE,619-621 Willow Avenue,,,,,,,
-74.0323009,40.7448468,619-621 WILLOW AVE,619-621 Willow Avenue,,,,,,,
-74.0323112,40.7448128,619-621 WILLOW AVE,619-621 Willow Avenue,,,,,,,
-74.0323213,40.7447797,619-621 WILLOW AVE,619-621 Willow Avenue,,,,,,,
-74.032331,40.7447479,619-621 WILLOW AVE,619-621 Willow Avenue,,,,,,,
-74.0324461,40.7458523,708-10 WILLOW AVE,708-10 Willow Avenue,,,,,,,
-74.0325025,40.7458862,708-10 WILLOW AVE,708-10 Willow Avenue,,,,,,,
-74.032587,40.7458276,708-10 WILLOW AVE,708-10 Willow Avenue,,,,,,,
-74.0323136,40.7458529,708-710 WILLOW AVE,708-710 Willow Avenue,,,,,,,
-74.0323205,40.7458302,708-710 WILLOW AVE,708-710 Willow Avenue,,,,,,,
-74.0323277,40.7458065,708-710 WILLOW AVE,708-710 Willow Avenue,,,,,,,
-74.0324392,40.7458751,708-710 WILLOW AVE,708-710 Willow Avenue,,,,,,,
-74.0324533,40.7458287,708-710 WILLOW AVE,708-710 Willow Avenue,,,,,,,
-74.0324604,40.7458052,708-710 WILLOW AVE,708-710 Willow Avenue,,,,,,,
-74.0325165,40.7458398,708-710 WILLOW AVE,708-710 Willow Avenue,,,,,,,
-74.0325237,40.7458164,708-710 WILLOW AVE,708-710 Willow Avenue,,,,,,,
-74.0325727,40.7458746,708-710 WILLOW AVE,708-710 Willow Avenue,,,,,,,
-74.0317259,40.7459065,711-13 WILLOW AVE,711-13 Willow Avenue,,,,,,,
-74.0317408,40.7458575,711-13 WILLOW AVE,711-13 Willow Avenue,,,,,,,
-74.0317536,40.7459113,711-13 WILLOW AVE,711-13 Willow Avenue,,,,,,,
-74.0317555,40.7458094,711-13 WILLOW AVE,711-13 Willow Avenue,,,,,,,
-74.0317685,40.7458624,711-13 WILLOW AVE,711-13 Willow Avenue,,,,,,,
-74.0317701,40.7457612,711-13 WILLOW AVE,711-13 Willow Avenue,,,,,,,
-74.031781,40.7459161,711-13 WILLOW AVE,711-13 Willow Avenue,,,,,,,
-74.0317831,40.7458142,711-13 WILLOW AVE,711-13 Willow Avenue,,,,,,,
-74.0317959,40.7458672,711-13 WILLOW AVE,711-13 Willow Avenue,,,,,,,
-74.0317978,40.7457661,711-13 WILLOW AVE,711-13 Willow Avenue,,,,,,,
-74.0318084,40.745921,711-13 WILLOW AVE,711-13 Willow Avenue,,,,,,,
-74.0318106,40.745819,711-13 WILLOW AVE,711-13 Willow Avenue,,,,,,,
-74.0318233,40.745872,711-13 WILLOW AVE,711-13 Willow Avenue,,,,,,,
-74.0318252,40.7457709,711-13 WILLOW AVE,711-13 Willow Avenue,,,,,,,
-74.0318358,40.7459258,711-13 WILLOW AVE,711-13 Willow Avenue,,,,,,,
-74.031838,40.7458239,711-13 WILLOW AVE,711-13 Willow Avenue,,,,,,,
-74.0318526,40.7457757,711-13 WILLOW AVE,711-13 Willow Avenue,,,,,,,
-74.0318633,40.7459306,711-13 WILLOW AVE,711-13 Willow Avenue,,,,,,,
-74.0318654,40.7458287,711-13 WILLOW AVE,711-13 Willow Avenue,,,,,,,
-74.0318782,40.7458817,711-13 WILLOW AVE,711-13 Willow Avenue,,,,,,,
-74.0318928,40.7458335,711-13 WILLOW AVE,711-13 Willow Avenue,,,,,,,
-74.0319075,40.7457854,711-13 WILLOW AVE,711-13 Willow Avenue,,,,,,,
-74.0319181,40.7459403,711-13 WILLOW AVE,711-13 Willow Avenue,,,,,,,
-74.0319202,40.7458383,711-13 WILLOW AVE,711-13 Willow Avenue,,,,,,,
-74.031933,40.7458913,711-13 WILLOW AVE,711-13 Willow Avenue,,,,,,,
-74.0319349,40.7457902,711-13 WILLOW AVE,711-13 Willow Avenue,,,,,,,
-74.0319455,40.7459451,711-13 WILLOW AVE,711-13 Willow Avenue,,,,,,,
-74.0319477,40.7458432,711-13 WILLOW AVE,711-13 Willow Avenue,,,,,,,
-74.0319604,40.7458962,711-13 WILLOW AVE,711-13 Willow Avenue,,,,,,,
-74.0319623,40.745795,711-13 WILLOW AVE,711-13 Willow Avenue,,,,,,,
-74.031973,40.7459499,711-13 WILLOW AVE,711-13 Willow Avenue,,,,,,,
-74.0319751,40.745848,711-13 WILLOW AVE,711-13 Willow Avenue,,,,,,,
-74.0319879,40.745901,711-13 WILLOW AVE,711-13 Willow Avenue,,,,,,,
-74.0320025,40.7458528,711-13 WILLOW AVE,711-13 Willow Avenue,,,,,,,
-74.0322949,40.7459143,712-14 WILLOW AVE,712-14 Willow Avenue,,,,,,,
-74.0323017,40.7458919,712-14 WILLOW AVE,712-14 Willow Avenue,,,,,,,
-74.0323497,40.74595,712-14 WILLOW AVE,712-14 Willow Avenue,,,,,,,
-74.0323572,40.7459253,712-14 WILLOW AVE,712-14 Willow Avenue,,,,,,,
-74.0324052,40.7459864,712-14 WILLOW AVE,712-14 Willow Avenue,,,,,,,
-74.0324274,40.745914,712-14 WILLOW AVE,712-14 Willow Avenue,,,,,,,
-74.0324686,40.7459975,712-14 WILLOW AVE,712-14 Willow Avenue,,,,,,,
-74.0324762,40.7459723,712-14 WILLOW AVE,712-14 Willow Avenue,,,,,,,
-74.0324838,40.7459476,712-14 WILLOW AVE,712-14 Willow Avenue,,,,,,,
-74.0324906,40.7459251,712-14 WILLOW AVE,712-14 Willow Avenue,,,,,,,
-74.0325318,40.7460086,712-14 WILLOW AVE,712-14 Willow Avenue,,,,,,,
-74.0325396,40.7459834,712-14 WILLOW AVE,712-14 Willow Avenue,,,,,,,
-74.032547,40.7459588,712-14 WILLOW AVE,712-14 Willow Avenue,,,,,,,
-74.0325539,40.7459362,712-14 WILLOW AVE,712-14 Willow Avenue,,,,,,,
-74.0316679,40.7464301,725-727 WILLOW AVE.,725-727 Willow Avenue,,,,,,,
-74.0322706,40.7464493,730-732 WILLOW AVE,730-732 Willow Avenue,,,,,,,
-74.032227,40.7465934,736-738 WILLOW AVE,736-738 Willow Avenue,,,,,,,
-74.0344645,40.7372185,77-83 WILLOW AVE,77-83 Willow Avenue,,,,,,,
-74.0320225,40.747264,800-812 WILLOW AVE,800-812 Willow Avenue,,,,,,,
-74.0318329,40.7478892,832-834 WILLOW AVE,832-834 Willow Avenue,,,,,,,
-74.0313074,40.7476081,835-837 WILLOW AVE,835-837 Willow Avenue,,,,,,,
-74.0313114,40.7475953,835-837 WILLOW AVE,835-837 Willow Avenue,,,,,,,
-74.0313708,40.7476192,835-837 WILLOW AVE,835-837 Willow Avenue,,,,,,,
-74.0313747,40.7476064,835-837 WILLOW AVE,835-837 Willow Avenue,,,,,,,
-74.0314377,40.747631,835-837 WILLOW AVE,835-837 Willow Avenue,,,,,,,
-74.0314416,40.7476183,835-837 WILLOW AVE,835-837 Willow Avenue,,,,,,,
-74.0343376,40.7377501,89-91 WILLOW AVE,89-91 Willow Avenue,,,,,,,
-74.0343556,40.7376912,89-91 WILLOW AVE,89-91 Willow Avenue,,,,,,,
-74.0343744,40.7376297,89-91 WILLOW AVE,89-91 Willow Avenue,,,,,,,
-74.0343925,40.7377598,89-91 WILLOW AVE,89-91 Willow Avenue,,,,,,,
-74.0344105,40.7377009,89-91 WILLOW AVE,89-91 Willow Avenue,,,,,,,
-74.0344293,40.7376394,89-91 WILLOW AVE,89-91 Willow Avenue,,,,,,,
-74.034447,40.7377695,89-91 WILLOW AVE,89-91 Willow Avenue,,,,,,,
-74.034465,40.7377106,89-91 WILLOW AVE,89-91 Willow Avenue,,,,,,,
-74.0344839,40.737649,89-91 WILLOW AVE,89-91 Willow Avenue,,,,,,,
-74.0315974,40.7481737,902-904 WILLOW AVE,902-904 Willow Avenue,,,,,,,
-74.0316104,40.748131,902-904 WILLOW AVE,902-904 Willow Avenue,,,,,,,
-74.0316357,40.7481805,902-904 WILLOW AVE,902-904 Willow Avenue,,,,,,,
-74.0316487,40.7481377,902-904 WILLOW AVE,902-904 Willow Avenue,,,,,,,
-74.0316759,40.7481875,902-904 WILLOW AVE,902-904 Willow Avenue,,,,,,,
-74.0316889,40.7481448,902-904 WILLOW AVE,902-904 Willow Avenue,,,,,,,
-74.0317168,40.7481947,902-904 WILLOW AVE,902-904 Willow Avenue,,,,,,,
-74.0317298,40.7481519,902-904 WILLOW AVE,902-904 Willow Avenue,,,,,,,
-74.0317565,40.7482017,902-904 WILLOW AVE,902-904 Willow Avenue,,,,,,,
-74.0317695,40.7481589,902-904 WILLOW AVE,902-904 Willow Avenue,,,,,,,
-74.0310983,40.7483065,913-915 WILLOW AVE.,913-915 Willow Avenue,,,,,,,
-74.031109,40.7482713,913-915 WILLOW AVE.,913-915 Willow Avenue,,,,,,,
-74.0311434,40.7483143,913-915 WILLOW AVE.,913-915 Willow Avenue,,,,,,,
-74.0311541,40.7482792,913-915 WILLOW AVE.,913-915 Willow Avenue,,,,,,,
-74.0311891,40.7483224,913-915 WILLOW AVE.,913-915 Willow Avenue,,,,,,,
-74.0311999,40.7482872,913-915 WILLOW AVE.,913-915 Willow Avenue,,,,,,,
-74.0312351,40.7483305,913-915 WILLOW AVE.,913-915 Willow Avenue,,,,,,,
-74.0312458,40.7482953,913-915 WILLOW AVE,913-915 Willow Avenue,,,,,,,
-74.031606,40.7486374,918-920 WILLOW AVE,918-920 Willow Avenue,,,,,,,
-74.0043075,40.2872056,18,Brookwillow Avenue,,,,,,,
-74.0055897,40.2884442,25,Brookwillow Avenue,,,,,,,
-74.0060358,40.2889078,25,Brookwillow Avenue,,,,,,,
-74.0048081,40.2886676,26,Brookwillow Avenue,,,,,,,
-74.0058021,40.2880752,27,Brookwillow Avenue,,,,,,,
-74.0046802,40.2881611,28,Brookwillow Avenue,,,,,,,
-74.0046226,40.2878228,30,Brookwillow Avenue,,,,,,,
-74.0048852,40.2871438,32,Brookwillow Avenue,,,,,,,
-74.0056538,40.2873067,41,Brookwillow Avenue,,,,,,,
-74.0055994,40.2870003,45,Brookwillow Avenue,,,,,,,
-74.0054693,40.2865885,49,Brookwillow Avenue,,,,,,,
-74.0046721,40.2864671,54,Brookwillow Avenue,,,,,,,
-74.0045797,40.2859848,58,Brookwillow Avenue,,,,,,,
-74.0052564,40.2849569,73,Brookwillow Avenue,,,,,,,
-74.0044287,40.2852249,74,Brookwillow Avenue,,,,,,,
-74.0043251,40.2846815,80,Brookwillow Avenue,,,,,,,
-74.0051788,40.2845897,81,Brookwillow Avenue,,,,,,,
-74.2968289,40.9828686,END WILLOW AV,End Willow Avenue,,,,,,,
-74.4556863,40.4693873,LAUREL PLACE & WILLOW AVE,Laurel Place & Willow Avenue,,,,,,,
-74.2953834,40.984386,MAPLE & WILLOW AVES,Maple & Willow Aves,,,,,,,
-73.9814768,40.3236492,W WILLOW AVENUE,West Willow Avenue,,,,,,,
-73.9816641,40.3236385,W WILLOW AVENUE,West Willow Avenue,,,,,,,
-74.029593,40.7528313,1225,Willow Ave/257 13th,,,,,,,
-74.0315788,40.7467171,801,Willow Ave/260 Eighth,,,,,,,
-74.0316422,40.7467283,801,Willow Ave/260 Eighth,,,,,,,
-74.0320959,40.7452497,633,Willow Ave/Aka265 7th,,,,,,,
-73.97915,40.3306933,WILLOW AVENUE,Willow Avenue,,,,,,,
-74.0270951,40.7613624,WILLOW AVE,Willow Avenue,,,,,,,
-74.0274038,40.7610132,WILLOW AVE,Willow Avenue,,,,,,,
-74.0275205,40.7608723,WILLOW AVE,Willow Avenue,,,,,,,
-74.0280341,40.7575872,WILLOW AVE,Willow Avenue,,,,,,,
-74.0499972,40.9116088,WILLOW AVE,Willow Avenue,,,,,,,
-74.0993834,40.8556288,WILLOW AVENUE,Willow Avenue,,,,,,,
-74.1016885,40.8568668,WILLOW AVENUE,Willow Avenue,,,,,,,
-74.1299693,40.811943,WILLOW AVE,Willow Avenue,,,,,,,
-74.1617333,40.2170403,WILLOW AVENUE,Willow Avenue,,,,,,,
-74.1621452,40.2169374,WILLOW AVENUE,Willow Avenue,,,,,,,
-74.162404,40.216393,WILLOW AVE,Willow Avenue,,,,,,,
-74.1631285,40.2171715,WILLOW AVENUE,Willow Avenue,,,,,,,
-74.1645166,40.2181593,WILLOW AVENUE,Willow Avenue,,,,,,,
-74.197568,40.1324997,WILLOW AVENUE,Willow Avenue,,,,,,,
-74.197836,40.1312822,WILLOW AVENUE,Willow Avenue,,,,,,,
-74.197996,40.130649,WILLOW AVENUE,Willow Avenue,,,,,,,
-74.1983309,40.1323838,WILLOW AVENUE,Willow Avenue,,,,,,,
-74.2189812,40.8859288,WILLOW AVE,Willow Avenue,,,,,,,
-74.2447934,40.4009595,WILLOW AVE,Willow Avenue,,,,,,,
-74.2449734,40.4008078,WILLOW AVE,Willow Avenue,,,,,,,
-74.2540267,40.0490167,WILLOW AVENUE,Willow Avenue,,,,,,,
-74.2759943,40.9087192,WILLOW AVE,Willow Avenue,,,,,,,
-74.2817502,40.9425529,WILLOW AVE,Willow Avenue,,,,,,,
-74.2925727,40.9837364,WILLOW AVE,Willow Avenue,,,,,,,
-74.2941781,40.9827407,WILLOW AVE,Willow Avenue,,,,,,,
-74.2950916,40.9838252,WILLOW AVE,Willow Avenue,,,,,,,
-74.4165726,40.5830769,0000,Willow Avenue,,,,,,,
-74.4182058,40.5840706,0000,Willow Avenue,,,,,,,
-74.4548669,40.470209,WILLOW AVENUE,Willow Avenue,,,,,,,
-74.4565846,40.4681479,WILLOW AVENUE,Willow Avenue,,,,,,,
-74.4851512,40.6632482,WILLOW AVE,Willow Avenue,,,,,,,
-74.5102998,40.5189377,WILLOW AVE,Willow Avenue,,,,,,,
-74.512199,40.5207893,WILLOW AVE,Willow Avenue,,,,,,,
-74.5197289,40.5136497,WILLOW AVE,Willow Avenue,,,,,,,
-74.5574136,39.4666765,WILLOW AVE,Willow Avenue,,,,,,,
-74.6397263,40.7190466,WILLOW AVENUE,Willow Avenue,,,,,,,
-74.6531792,40.724209,WILLOW AVENUE,Willow Avenue,,,,,,,
-74.9271855,38.9440564,WILLOW AVE.,Willow Avenue,,,,,,,
-74.9280208,38.9416488,WILLOW AVE.,Willow Avenue,,,,,,,
-74.9281564,38.9414177,WILLOW AVE,Willow Avenue,,,,,,,
-74.9287107,38.9414634,WILLOW AVE,Willow Avenue,,,,,,,
-75.0713537,39.5840138,WILLOW AVE,Willow Avenue,,,,,,,
-75.0955647,40.6481844,WILLOW AVE,Willow Avenue,,,,,,,
-75.0964202,40.6461246,WILLOW AVE,Willow Avenue,,,,,,,
-75.097102,40.64731,WILLOW AVE,Willow Avenue,,,,,,,
-75.0993296,40.6465044,WILLOW AVE,Willow Avenue,,,,,,,
-75.1018453,40.6453135,WILLOW AVE,Willow Avenue,,,,,,,
-75.1020576,40.6441918,WILLOW AVE,Willow Avenue,,,,,,,
-75.1054341,40.6428524,WILLOW AVE,Willow Avenue,,,,,,,
-75.1531258,39.8132936,WILLOW AVE,Willow Avenue,,,,,,,
-75.1536582,39.8132693,WILLOW AVE,Willow Avenue,,,,,,,
-75.1657644,39.8224926,WILLOW AVENUE,Willow Avenue,,,,,,,
-75.1673993,39.3234527,WILLOW AVE,Willow Avenue,,,,,,,
-75.1674395,39.3236556,WILLOW AVE,Willow Avenue,,,,,,,
-75.1677092,39.3250818,WILLOW AVE.,Willow Avenue,,,,,,,
-75.1677477,39.3252855,WILLOW AVE.,Willow Avenue,,,,,,,
-75.1678634,39.3258967,WILLOW AVE.,Willow Avenue,,,,,,,
-75.1679019,39.3261004,WILLOW AVE.,Willow Avenue,,,,,,,
-75.1681502,39.3241743,WILLOW AVE.,Willow Avenue,,,,,,,
-75.1683195,39.3245446,WILLOW AVE.,Willow Avenue,,,,,,,
-75.1683992,39.3249519,WILLOW AVE.,Willow Avenue,,,,,,,
-75.1684379,39.3251564,WILLOW AVE.,Willow Avenue,,,,,,,
-75.1684761,39.325358,WILLOW AVE.,Willow Avenue,,,,,,,
-75.1688864,39.3250871,WILLOW AVE.,Willow Avenue,,,,,,,
-75.1690931,39.3254984,WILLOW AVE.,Willow Avenue,,,,,,,
-73.9782769,40.3295151,1,Willow Avenue,,,,,,,
-74.281146,40.9423141,1,Willow Avenue,,,,,,,
-74.3750727,40.5252443,1,Willow Avenue,,,,,,,
-74.4947354,40.5362096,1,Willow Avenue,,,,,,,
-74.5545184,40.8675452,1,Willow Avenue,,,,,,,
-74.6361898,39.3651465,1,Willow Avenue,,,,,,,
-74.928419,38.9419617,1,Willow Avenue,,,,,,,
-73.9282996,41.0033415,2,Willow Avenue,,,,,,,
-73.9787759,40.3292033,2,Willow Avenue,,,,,,,
-74.1658976,40.2177965,2,Willow Avenue,,,,,,,
-74.2414397,40.4045634,2,Willow Avenue,,,,,,,
-74.2810118,40.9427281,2,Willow Avenue,,,,,,,
-74.2936705,40.9836693,2,Willow Avenue,,,,,,,
-74.3745302,40.5252434,2,Willow Avenue,,,,,,,
-74.4945036,40.5368245,2,Willow Avenue,,,,,,,
-74.6356619,39.3651945,2,Willow Avenue,,,,,,,
-74.658453,40.7156515,2,Willow Avenue,,,,,,,
-73.9281056,41.0049667,3,Willow Avenue,,,,,,,
-73.9783751,40.3297757,3,Willow Avenue,,,,,,,
-74.2410606,40.4039743,3,Willow Avenue,,,,,,,
-74.2813856,40.942409,3,Willow Avenue,,,,,,,
-74.3750508,40.525048,3,Willow Avenue,,,,,,,
-74.6583436,40.7163303,3,Willow Avenue,,,,,,,
-73.9787182,40.3294597,4,Willow Avenue,,,,,,,
-74.2415467,40.4042117,4,Willow Avenue,,,,,,,
-74.3745096,40.5250595,4,Willow Avenue,,,,,,,
-74.5542173,40.8678496,4,Willow Avenue,,,,,,,
-74.6581824,40.7158469,4,Willow Avenue,,,,,,,
-74.1013159,40.85676,5,Willow Avenue,,,,,,,
-74.2190283,40.8863027,5,Willow Avenue,,,,,,,
-74.2415038,40.4037773,5,Willow Avenue,,,,,,,
-74.273729,40.9094494,5,Willow Avenue,,,,,,,
-74.3750337,40.5248563,5,Willow Avenue,,,,,,,
-74.494213,40.5363819,5,Willow Avenue,,,,,,,
-74.5547867,40.8676585,5,Willow Avenue,,,,,,,
-74.6579467,40.7165389,5,Willow Avenue,,,,,,,
-73.9787365,40.3296643,6,Willow Avenue,,,,,,,
-74.165622,40.217467,6,Willow Avenue,,,,,,,
-74.2812521,40.9428239,6,Willow Avenue,,,,,,,
-74.374493,40.5248732,6,Willow Avenue,,,,,,,
-74.3950749,40.6437701,6,Willow Avenue,,,,,,,
-74.4941826,40.5369487,6,Willow Avenue,,,,,,,
-73.9270234,41.0047752,7,Willow Avenue,,,,,,,
-74.1657348,40.2170592,7,Willow Avenue,,,,,,,
-74.2739681,40.9093088,7,Willow Avenue,,,,,,,
-74.2816287,40.942504,7,Willow Avenue,,,,,,,
-74.3750167,40.5246645,7,Willow Avenue,,,,,,,
-74.5550471,40.8677824,7,Willow Avenue,,,,,,,
-73.9787896,40.3298154,8,Willow Avenue,,,,,,,
-74.198195,40.1298604,8,Willow Avenue,,,,,,,
-74.2814549,40.9429037,8,Willow Avenue,,,,,,,
-74.3744765,40.524687,8,Willow Avenue,,,,,,,
-74.5544892,40.8681714,8,Willow Avenue,,,,,,,
-74.6578985,40.7159596,8,Willow Avenue,,,,,,,
-73.9263709,41.0047708,9,Willow Avenue,,,,,,,
-74.0424963,40.9071587,9,Willow Avenue,,,,,,,
-74.1986062,40.1301397,9,Willow Avenue,,,,,,,
-74.3749996,40.5244728,9,Willow Avenue,,,,,,,
-74.3955298,40.6435825,9,Willow Avenue,,,,,,,
-74.4938775,40.5365264,9,Willow Avenue,,,,,,,
-73.9788455,40.3299773,10,Willow Avenue,,,,,,,
-74.1652327,40.2175523,10,Willow Avenue,,,,,,,
-74.1981277,40.1301272,10,Willow Avenue,,,,,,,
-74.2424189,40.4034539,10,Willow Avenue,,,,,,,
-74.2816921,40.942998,10,Willow Avenue,,,,,,,
-74.295589,40.9838462,10,Willow Avenue,,,,,,,
-74.3305957,40.5685458,10,Willow Avenue,,,,,,,
-74.3744599,40.5245008,10,Willow Avenue,,,,,,,
-74.4938446,40.5370817,10,Willow Avenue,,,,,,,
-74.1653839,40.2170043,11,Willow Avenue,,,,,,,
-74.2741987,40.9091741,11,Willow Avenue,,,,,,,
-74.9690042,39.9392757,11,Willow Avenue,,,,,,,
-73.9790787,40.3301235,12,Willow Avenue,,,,,,,
-74.2945481,40.9838114,12,Willow Avenue,,,,,,,
-74.3951013,40.6440921,12,Willow Avenue,,,,,,,
-74.928315,38.9411286,12,Willow Avenue,,,,,,,
-74.0426317,40.9072348,13,Willow Avenue,,,,,,,
-74.4935508,40.5366472,13,Willow Avenue,,,,,,,
-74.4994603,40.5281161,13,Willow Avenue,,,,,,,
-73.9791973,40.3303535,14,Willow Avenue,,,,,,,
-74.1980616,40.1303891,14,Willow Avenue,,,,,,,
-74.2906491,40.9839539,14,Willow Avenue,,,,,,,
-74.4986616,40.5277632,14,Willow Avenue,,,,,,,
-74.5547741,40.8682697,14,Willow Avenue,,,,,,,
-74.6573837,40.7163623,14,Willow Avenue,,,,,,,
-74.1007857,40.8568596,15,Willow Avenue,,,,,,,
-74.2819508,40.9426314,15,Willow Avenue,,,,,,,
-74.374918,40.5235837,15,Willow Avenue,,,,,,,
-74.555465,40.8679815,15,Willow Avenue,,,,,,,
-74.657005,40.7171847,15,Willow Avenue,,,,,,,
-74.2911167,40.9839547,16,Willow Avenue,,,,,,,
-74.3743809,40.5236161,16,Willow Avenue,,,,,,,
-74.3953481,40.6441218,16,Willow Avenue,,,,,,,
-74.4989365,40.5274552,16,Willow Avenue,,,,,,,
-74.6568535,40.7166817,16,Willow Avenue,,,,,,,
-74.1009761,40.8565217,17,Willow Avenue,,,,,,,
-74.2746566,40.9089001,17,Willow Avenue,,,,,,,
-74.4997261,40.527861,17,Willow Avenue,,,,,,,
-74.6561396,40.7176505,17,Willow Avenue,,,,,,,
-74.9286369,38.9415885,17,Willow Avenue,,,,,,,
-74.9942972,39.6895163,17,Willow Avenue,,,,,,,
-73.9792995,40.3308894,18,Willow Avenue,,,,,,,
-74.0425124,40.9076267,18,Willow Avenue,,,,,,,
-74.164418,40.2175871,18,Willow Avenue,,,,,,,
-74.2931121,40.9837036,18,Willow Avenue,,,,,,,
-74.4991714,40.5272295,18,Willow Avenue,,,,,,,
-74.5549046,40.8684185,18,Willow Avenue,,,,,,,
-74.0427978,40.9073438,19,Willow Avenue,,,,,,,
-74.10088,40.8564193,19,Willow Avenue,,,,,,,
-74.1985398,40.1306609,19,Willow Avenue,,,,,,,
-74.2930986,40.9841759,19,Willow Avenue,,,,,,,
-74.499947,40.5276518,19,Willow Avenue,,,,,,,
-74.2429526,40.4031047,20,Willow Avenue,,,,,,,
-74.5554756,40.8684664,20,Willow Avenue,,,,,,,
-74.6562215,40.7169918,20,Willow Avenue,,,,,,,
-74.2748616,40.9087728,21,Willow Avenue,,,,,,,
-74.2928289,40.9841677,21,Willow Avenue,,,,,,,
-74.5559367,40.8682062,21,Willow Avenue,,,,,,,
-74.6557741,40.7179557,21,Willow Avenue,,,,,,,
-74.0425719,40.9077529,22,Willow Avenue,,,,,,,
-74.1979382,40.1308778,22,Willow Avenue,,,,,,,
-74.3146815,40.6523674,22,Willow Avenue,,,,,,,
-74.330989,40.5685452,22,Willow Avenue,,,,,,,
-74.4996815,40.5269602,22,Willow Avenue,,,,,,,
-74.6558483,40.717167,22,Willow Avenue,,,,,,,
-74.1986319,40.1309175,23,Willow Avenue,,,,,,,
-74.2183296,40.8859744,23,Willow Avenue,,,,,,,
-74.2424744,40.4029083,23,Willow Avenue,,,,,,,
-74.2425304,40.4028542,23,Willow Avenue,,,,,,,
-74.2426181,40.4027816,23,Willow Avenue,,,,,,,
-74.5563733,40.8684141,23,Willow Avenue,,,,,,,
-74.6554247,40.7181009,23,Willow Avenue,,,,,,,
-74.9945373,39.6896121,23,Willow Avenue,,,,,,,
-74.6556399,40.7172489,24,Willow Avenue,,,,,,,
-75.0879785,40.6543945,24,Willow Avenue,,,,,,,
-74.1007381,40.8563438,25,Willow Avenue,,,,,,,
-74.2185669,40.8860715,25,Willow Avenue,,,,,,,
-74.2751414,40.9085964,25,Willow Avenue,,,,,,,
-74.3148284,40.6519363,25,Willow Avenue,,,,,,,
-74.3315158,40.5677721,25,Willow Avenue,,,,,,,
-74.6550656,40.7182457,25,Willow Avenue,,,,,,,
-74.0426349,40.9078805,26,Willow Avenue,,,,,,,
-74.1011292,40.8560218,26,Willow Avenue,,,,,,,
-74.2754379,40.9089918,26,Willow Avenue,,,,,,,
-74.3312687,40.5686397,26,Willow Avenue,,,,,,,
-74.6555163,40.7172924,26,Willow Avenue,,,,,,,
-75.0880032,40.6542289,26,Willow Avenue,,,,,,,
-74.1006256,40.8562842,27,Willow Avenue,,,,,,,
-74.2187862,40.8862029,27,Willow Avenue,,,,,,,
-74.2427699,40.4026528,27,Willow Avenue,,,,,,,
-75.0886208,40.6544838,27,Willow Avenue,,,,,,,
-74.1008225,40.8559171,28,Willow Avenue,,,,,,,
-74.3314482,40.5686297,28,Willow Avenue,,,,,,,
-74.5223374,40.9029751,28,Willow Avenue,,,,,,,
-74.5560678,40.8687417,28,Willow Avenue,,,,,,,
-74.1985619,40.1312589,29,Willow Avenue,,,,,,,
-74.2755187,40.9083656,29,Willow Avenue,,,,,,,
-74.9947622,39.6897238,29,Willow Avenue,,,,,,,
-74.042764,40.907951,30,Willow Avenue,,,,,,,
-74.3316726,40.5686171,30,Willow Avenue,,,,,,,
-74.5000177,40.5264275,30,Willow Avenue,,,,,,,
-74.6549823,40.717406,30,Willow Avenue,,,,,,,
-74.1003896,40.8561602,31,Willow Avenue,,,,,,,
-75.0887469,40.6543839,31,Willow Avenue,,,,,,,
-74.197785,40.1314845,32,Willow Avenue,,,,,,,
-74.3150715,40.6523143,32,Willow Avenue,,,,,,,
-74.556514,40.8690538,32,Willow Avenue,,,,,,,
-74.6545646,40.7175558,32,Willow Avenue,,,,,,,
-74.0433363,40.9076322,33,Willow Avenue,,,,,,,
-74.1984353,40.1318753,33,Willow Avenue,,,,,,,
-74.2757417,40.9082309,33,Willow Avenue,,,,,,,
-74.3317416,40.5679252,33,Willow Avenue,,,,,,,
-74.5008475,40.5269275,33,Willow Avenue,,,,,,,
-74.6535828,40.7192879,33,Willow Avenue,,,,,,,
-75.0888044,40.6543339,33,Willow Avenue,,,,,,,
-74.0429444,40.9079732,34,Willow Avenue,,,,,,,
-74.1006736,40.8558389,34,Willow Avenue,,,,,,,
-74.1977339,40.1316867,34,Willow Avenue,,,,,,,
-74.1002434,40.8560813,35,Willow Avenue,,,,,,,
-74.2430115,40.4024489,35,Willow Avenue,,,,,,,
-74.5010678,40.5267135,35,Willow Avenue,,,,,,,
-74.9949729,39.6898416,35,Willow Avenue,,,,,,,
-75.0888617,40.6542817,35,Willow Avenue,,,,,,,
-74.2433821,40.4027455,36,Willow Avenue,,,,,,,
-74.2762749,40.9085461,36,Willow Avenue,,,,,,,
-74.315364,40.6522745,36,Willow Avenue,,,,,,,
-74.3319418,40.5686021,36,Willow Avenue,,,,,,,
-74.5002398,40.5262129,36,Willow Avenue,,,,,,,
-74.5225041,40.9028144,36,Willow Avenue,,,,,,,
-75.0883905,40.6539041,36,Willow Avenue,,,,,,,
-74.1000957,40.8560038,37,Willow Avenue,,,,,,,
-74.2760243,40.908059,37,Willow Avenue,,,,,,,
-74.5219579,40.9026697,37,Willow Avenue,,,,,,,
-75.0889306,40.6542217,37,Willow Avenue,,,,,,,
-74.1003594,40.8556775,38,Willow Avenue,,,,,,,
-74.1976885,40.131889,38,Willow Avenue,,,,,,,
-74.2942011,40.9836316,38,Willow Avenue,,,,,,,
-74.6524284,40.7166753,38,Willow Avenue,,,,,,,
-75.0885238,40.653784,38,Willow Avenue,,,,,,,
-74.3320109,40.5679101,39,Willow Avenue,,,,,,,
-74.5013005,40.5264863,39,Willow Avenue,,,,,,,
-74.1976483,40.1320926,40,Willow Avenue,,,,,,,
-74.2436277,40.4025422,40,Willow Avenue,,,,,,,
-74.2764913,40.9084106,40,Willow Avenue,,,,,,,
-74.3321662,40.5685896,40,Willow Avenue,,,,,,,
-74.5004608,40.525998,40,Willow Avenue,,,,,,,
-75.0886603,40.653661,40,Willow Avenue,,,,,,,
-74.0999449,40.855924,41,Willow Avenue,,,,,,,
-74.1983727,40.1321804,41,Willow Avenue,,,,,,,
-75.0891339,40.6540402,41,Willow Avenue,,,,,,,
-74.5006833,40.5257834,42,Willow Avenue,,,,,,,
-75.0887684,40.6535532,42,Willow Avenue,,,,,,,
-74.5222205,40.9023749,43,Willow Avenue,,,,,,,
-75.0895065,40.6537406,43,Willow Avenue,,,,,,,
-74.1001705,40.8555777,44,Willow Avenue,,,,,,,
-74.1976081,40.1322961,44,Willow Avenue,,,,,,,
-74.5226669,40.9026543,44,Willow Avenue,,,,,,,
-74.6492495,40.7191172,44,Willow Avenue,,,,,,,
-75.0888618,40.6534695,44,Willow Avenue,,,,,,,
-74.0997953,40.8558431,45,Willow Avenue,,,,,,,
-74.243221,40.4022727,45,Willow Avenue,,,,,,,
-74.3154027,40.6518233,45,Willow Avenue,,,,,,,
-74.332383,40.568027,45,Willow Avenue,,,,,,,
-74.5015239,40.5262707,45,Willow Avenue,,,,,,,
-75.0897999,40.6534252,45,Willow Avenue,,,,,,,
-74.3156831,40.6522311,46,Willow Avenue,,,,,,,
-74.3323458,40.5685796,46,Willow Avenue,,,,,,,
-74.500906,40.5255672,46,Willow Avenue,,,,,,,
-75.0892024,40.6532816,46,Willow Avenue,,,,,,,
-74.0438767,40.9079504,47,Willow Avenue,,,,,,,
-74.1982892,40.1325873,47,Willow Avenue,,,,,,,
-75.0895875,40.6533269,47,Willow Avenue,,,,,,,
-74.0434685,40.9082374,48,Willow Avenue,,,,,,,
-74.3325253,40.5685695,48,Willow Avenue,,,,,,,
-74.0996487,40.8557678,49,Willow Avenue,,,,,,,
-74.243403,40.4021209,49,Willow Avenue,,,,,,,
-74.5017343,40.5260661,49,Willow Avenue,,,,,,,
-74.5223436,40.9021664,49,Willow Avenue,,,,,,,
-75.0896984,40.6531967,49,Willow Avenue,,,,,,,
-74.1000209,40.8554995,50,Willow Avenue,,,,,,,
-74.3327496,40.568557,50,Willow Avenue,,,,,,,
-74.5011272,40.5253515,50,Willow Avenue,,,,,,,
-74.0440086,40.9080289,51,Willow Avenue,,,,,,,
-74.0998741,40.8554224,52,Willow Avenue,,,,,,,
-74.2438703,40.4023392,52,Willow Avenue,,,,,,,
-74.0994998,40.8556864,53,Willow Avenue,,,,,,,
-74.5019538,40.5258509,53,Willow Avenue,,,,,,,
-75.0901644,40.6530319,53,Willow Avenue,,,,,,,
-74.0436025,40.9083159,54,Willow Avenue,,,,,,,
-74.2441744,40.4020883,54,Willow Avenue,,,,,,,
-74.3160199,40.6521854,54,Willow Avenue,,,,,,,
-74.6469404,40.7200886,54,Willow Avenue,,,,,,,
-74.0441556,40.9081133,55,Willow Avenue,,,,,,,
-74.3158991,40.6517557,55,Willow Avenue,,,,,,,
-74.3328701,40.567931,55,Willow Avenue,,,,,,,
-74.5021747,40.5256347,55,Willow Avenue,,,,,,,
-74.5225124,40.9019362,55,Willow Avenue,,,,,,,
-74.6514038,40.7208106,55,Willow Avenue,,,,,,,
-74.0997223,40.8553435,56,Willow Avenue,,,,,,,
-74.5013479,40.5251381,56,Willow Avenue,,,,,,,
-74.652164,40.7227364,57,Willow Avenue,,,,,,,
-74.0437453,40.9083991,58,Willow Avenue,,,,,,,
-74.3330189,40.5685419,58,Willow Avenue,,,,,,,
-74.5227805,40.9023727,58,Willow Avenue,,,,,,,
-75.0895857,40.6525815,58,Willow Avenue,,,,,,,
-74.0992738,40.8555674,59,Willow Avenue,,,,,,,
-74.2437011,40.4018625,59,Willow Avenue,,,,,,,
-74.3160409,40.6517365,59,Willow Avenue,,,,,,,
-74.5023953,40.5254197,59,Willow Avenue,,,,,,,
-74.649734,40.7227438,59,Willow Avenue,,,,,,,
-74.649937,40.7248022,59,Willow Avenue,,,,,,,
-74.0439036,40.9084892,60,Willow Avenue,,,,,,,
-74.5015678,40.5249231,60,Willow Avenue,,,,,,,
-74.0442986,40.9081973,61,Willow Avenue,,,,,,,
-74.5227964,40.9018008,61,Willow Avenue,,,,,,,
-75.0905789,40.652751,61,Willow Avenue,,,,,,,
-74.0440028,40.9085489,62,Willow Avenue,,,,,,,
-74.0994379,40.8552788,62,Willow Avenue,,,,,,,
-74.5017902,40.5247072,62,Willow Avenue,,,,,,,
-74.6475492,40.7218266,62,Willow Avenue,,,,,,,
-74.3331394,40.5679159,63,Willow Avenue,,,,,,,
-74.502617,40.5252046,63,Willow Avenue,,,,,,,
-74.3163035,40.6521468,64,Willow Avenue,,,,,,,
-74.5020145,40.5244891,64,Willow Avenue,,,,,,,
-74.3334469,40.5678299,65,Willow Avenue,,,,,,,
-74.0441093,40.9086104,66,Willow Avenue,,,,,,,
-74.3333199,40.5683875,66,Willow Avenue,,,,,,,
-74.5229841,40.9024952,66,Willow Avenue,,,,,,,
-74.6468594,40.7227109,66,Willow Avenue,,,,,,,
-74.044515,40.9083228,67,Willow Avenue,,,,,,,
-74.5028558,40.5250089,67,Willow Avenue,,,,,,,
-74.5231316,40.9019915,67,Willow Avenue,,,,,,,
-74.3164985,40.6521202,68,Willow Avenue,,,,,,,
-74.0442275,40.9086771,70,Willow Avenue,,,,,,,
-74.5022058,40.5242689,70,Willow Avenue,,,,,,,
-74.6458703,40.7179843,70,Willow Avenue,,,,,,,
-74.6476162,40.7240393,71,Willow Avenue,,,,,,,
-74.5025273,40.5242706,72,Willow Avenue,,,,,,,
-74.6453492,40.7223778,72,Willow Avenue,,,,,,,
-74.5029218,40.5245477,73,Willow Avenue,,,,,,,
-74.5233717,40.9021612,73,Willow Avenue,,,,,,,
-74.5026697,40.5241327,74,Willow Avenue,,,,,,,
-74.6438404,40.7225074,76,Willow Avenue,,,,,,,
-74.0444612,40.9088315,80,Willow Avenue,,,,,,,
-74.3338597,40.5683711,80,Willow Avenue,,,,,,,
-74.5030774,40.5237368,80,Willow Avenue,,,,,,,
-74.6430132,40.7238625,80,Willow Avenue,,,,,,,
-75.08981,40.6512067,80,Willow Avenue,,,,,,,
-75.0911382,40.6515054,81,Willow Avenue,,,,,,,
-74.0446052,40.9089161,82,Willow Avenue,,,,,,,
-74.6426782,40.7250464,83,Willow Avenue,,,,,,,
-74.3341408,40.5684793,84,Willow Avenue,,,,,,,
-74.6416043,40.7234417,84,Willow Avenue,,,,,,,
-74.045122,40.9086967,85,Willow Avenue,,,,,,,
-74.3338191,40.5679467,85,Willow Avenue,,,,,,,
-74.5038747,40.5240236,85,Willow Avenue,,,,,,,
-74.0447489,40.9090015,86,Willow Avenue,,,,,,,
-74.5031383,40.5232651,86,Willow Avenue,,,,,,,
-74.045266,40.9087826,87,Willow Avenue,,,,,,,
-74.6409933,40.7243817,87,Willow Avenue,,,,,,,
-74.044923,40.9091038,88,Willow Avenue,,,,,,,
-74.5034399,40.5232007,88,Willow Avenue,,,,,,,
-74.0454081,40.9089362,89,Willow Avenue,,,,,,,
-74.6398866,40.7229788,89,Willow Avenue,,,,,,,
-75.0916591,40.6508433,89,Willow Avenue,,,,,,,
-74.3343643,40.5683636,90,Willow Avenue,,,,,,,
-74.5040653,40.5238022,91,Willow Avenue,,,,,,,
-75.0922591,40.6503447,91,Willow Avenue,,,,,,,
-75.0931852,40.6496832,93,Willow Avenue,,,,,,,
-74.503632,40.5229,94,Willow Avenue,,,,,,,
-74.6409865,40.7218801,94,Willow Avenue,,,,,,,
-74.0343739,40.7379048,95,Willow Avenue,,,,,,,
-74.5042896,40.5235862,95,Willow Avenue,,,,,,,
-74.5045314,40.5233951,97,Willow Avenue,,,,,,,
-74.5044568,40.5230701,99,Willow Avenue,,,,,,,
-74.0342328,40.7383407,101,Willow Avenue,,,,,,,
-74.0342401,40.7383169,101,Willow Avenue,,,,,,,
-74.034247,40.7382942,101,Willow Avenue,,,,,,,
-74.0342539,40.7382714,101,Willow Avenue,,,,,,,
-74.0342588,40.7383453,101,Willow Avenue,,,,,,,
-74.0342608,40.7382487,101,Willow Avenue,,,,,,,
-74.0342661,40.7383214,101,Willow Avenue,,,,,,,
-74.0342677,40.738226,101,Willow Avenue,,,,,,,
-74.034273,40.7382987,101,Willow Avenue,,,,,,,
-74.0342746,40.7382032,101,Willow Avenue,,,,,,,
-74.0342799,40.738276,101,Willow Avenue,,,,,,,
-74.0342815,40.7381805,101,Willow Avenue,,,,,,,
-74.0342845,40.7383498,101,Willow Avenue,,,,,,,
-74.0342868,40.7382533,101,Willow Avenue,,,,,,,
-74.0342884,40.7381577,101,Willow Avenue,,,,,,,
-74.0342918,40.738326,101,Willow Avenue,,,,,,,
-74.0342937,40.7382305,101,Willow Avenue,,,,,,,
-74.0342987,40.7383032,101,Willow Avenue,,,,,,,
-74.0343006,40.7382078,101,Willow Avenue,,,,,,,
-74.0343056,40.7382805,101,Willow Avenue,,,,,,,
-74.0343075,40.7381851,101,Willow Avenue,,,,,,,
-74.0343125,40.7382578,101,Willow Avenue,,,,,,,
-74.0343145,40.7381623,101,Willow Avenue,,,,,,,
-74.0343194,40.7382351,101,Willow Avenue,,,,,,,
-74.0343263,40.7382123,101,Willow Avenue,,,,,,,
-74.0343333,40.7381896,101,Willow Avenue,,,,,,,
-74.0343402,40.7381669,101,Willow Avenue,,,,,,,
-74.4930601,40.5368701,101,Willow Avenue,,,,,,,
-74.2446381,40.4015785,102,Willow Avenue,,,,,,,
-74.3168885,40.6520673,102,Willow Avenue,,,,,,,
-74.4933359,40.5372929,102,Willow Avenue,,,,,,,
-74.5039435,40.5226518,102,Willow Avenue,,,,,,,
-74.6475924,40.716356,102,Willow Avenue,,,,,,,
-74.4398846,39.3596087,103,Willow Avenue,,,,,,,
-74.2445474,40.4011629,105,Willow Avenue,,,,,,,
-74.4399255,39.3596696,105,Willow Avenue,,,,,,,
-74.4927283,40.5370037,105,Willow Avenue,,,,,,,
-74.0347052,40.7384524,106,Willow Avenue,,,,,,,
-74.4930068,40.5374192,106,Willow Avenue,,,,,,,
-74.0341201,40.7383829,107,Willow Avenue,,,,,,,
-74.3167774,40.6516015,107,Willow Avenue,,,,,,,
-74.4398916,39.3597261,107,Willow Avenue,,,,,,,
-74.0345498,40.738505,108,Willow Avenue,,,,,,,
-74.0345566,40.7384828,108,Willow Avenue,,,,,,,
-74.0346052,40.7385148,108,Willow Avenue,,,,,,,
-74.034612,40.7384926,108,Willow Avenue,,,,,,,
-74.034661,40.7385247,108,Willow Avenue,,,,,,,
-74.0346678,40.7385024,108,Willow Avenue,,,,,,,
-74.0347147,40.7385341,108,Willow Avenue,,,,,,,
-74.0347214,40.7385119,108,Willow Avenue,,,,,,,
-74.2450167,40.4013671,108,Willow Avenue,,,,,,,
-74.0340902,40.7384806,109,Willow Avenue,,,,,,,
-74.0460718,40.9092628,109,Willow Avenue,,,,,,,
-74.3169777,40.6515743,109,Willow Avenue,,,,,,,
-74.4399312,39.3597673,109,Willow Avenue,,,,,,,
-74.4924082,40.537129,109,Willow Avenue,,,,,,,
-74.034533,40.7385602,110,Willow Avenue,,,,,,,
-74.0345885,40.7385699,110,Willow Avenue,,,,,,,
-74.0346442,40.7385798,110,Willow Avenue,,,,,,,
-74.0346978,40.7385892,110,Willow Avenue,,,,,,,
-74.3171012,40.6520383,110,Willow Avenue,,,,,,,
-74.4926866,40.5375445,110,Willow Avenue,,,,,,,
-74.2446996,40.4010333,111,Willow Avenue,,,,,,,
-74.4399592,39.3598089,111,Willow Avenue,,,,,,,
-74.0346457,40.7386501,112,Willow Avenue,,,,,,,
-74.0339584,40.7385611,113,Willow Avenue,,,,,,,
-74.0340157,40.7385712,113,Willow Avenue,,,,,,,
-74.0340739,40.7385815,113,Willow Avenue,,,,,,,
-74.0341322,40.7385918,113,Willow Avenue,,,,,,,
-74.0341905,40.7386021,113,Willow Avenue,,,,,,,
-74.4920881,40.5372544,113,Willow Avenue,,,,,,,
-74.0344909,40.7387032,114,Willow Avenue,,,,,,,
-74.0344974,40.7386818,114,Willow Avenue,,,,,,,
-74.0345462,40.738713,114,Willow Avenue,,,,,,,
-74.0345527,40.7386916,114,Willow Avenue,,,,,,,
-74.0346003,40.7387226,114,Willow Avenue,,,,,,,
-74.0346068,40.7387011,114,Willow Avenue,,,,,,,
-74.0346539,40.738732,114,Willow Avenue,,,,,,,
-74.3172785,40.6520142,114,Willow Avenue,,,,,,,
-74.4923665,40.5376699,114,Willow Avenue,,,,,,,
-74.5047234,40.5221393,114,Willow Avenue,,,,,,,
-74.0461966,40.9093368,115,Willow Avenue,,,,,,,
-74.3171549,40.6515501,115,Willow Avenue,,,,,,,
-74.0344786,40.7387707,116,Willow Avenue,,,,,,,
-74.0344857,40.7387476,116,Willow Avenue,,,,,,,
-74.0345526,40.7387837,116,Willow Avenue,,,,,,,
-74.0345596,40.7387606,116,Willow Avenue,,,,,,,
-74.034625,40.7387965,116,Willow Avenue,,,,,,,
-74.0346321,40.7387734,116,Willow Avenue,,,,,,,
-74.2452915,40.4011363,116,Willow Avenue,,,,,,,
-74.3174203,40.6519949,116,Willow Avenue,,,,,,,
-74.0340159,40.7387241,117,Willow Avenue,,,,,,,
-74.491768,40.5373797,117,Willow Avenue,,,,,,,
-74.5054315,40.522117,117,Willow Avenue,,,,,,,
-74.0344538,40.738825,118,Willow Avenue,,,,,,,
-74.0345091,40.7388348,118,Willow Avenue,,,,,,,
-74.0345632,40.7388443,118,Willow Avenue,,,,,,,
-74.0346169,40.7388538,118,Willow Avenue,,,,,,,
-74.4920464,40.5377952,118,Willow Avenue,,,,,,,
-74.0339941,40.7387949,119,Willow Avenue,,,,,,,
-74.3173527,40.6515581,119,Willow Avenue,,,,,,,
-74.0344288,40.7389068,120,Willow Avenue,,,,,,,
-74.0344366,40.7388814,120,Willow Avenue,,,,,,,
-74.0344842,40.7389166,120,Willow Avenue,,,,,,,
-74.034492,40.7388911,120,Willow Avenue,,,,,,,
-74.0345387,40.7389262,120,Willow Avenue,,,,,,,
-74.0345464,40.7389007,120,Willow Avenue,,,,,,,
-74.0345924,40.7389357,120,Willow Avenue,,,,,,,
-74.0346001,40.7389102,120,Willow Avenue,,,,,,,
-75.0964788,40.6467383,120,Willow Avenue,,,,,,,
-74.0338911,40.7388559,121,Willow Avenue,,,,,,,
-74.0338981,40.7388328,121,Willow Avenue,,,,,,,
-74.033944,40.7388652,121,Willow Avenue,,,,,,,
-74.033951,40.7388421,121,Willow Avenue,,,,,,,
-74.0339975,40.7388746,121,Willow Avenue,,,,,,,
-74.0340044,40.7388515,121,Willow Avenue,,,,,,,
-74.0340509,40.738884,121,Willow Avenue,,,,,,,
-74.0340579,40.738861,121,Willow Avenue,,,,,,,
-74.0341043,40.7388934,121,Willow Avenue,,,,,,,
-74.0341113,40.7388704,121,Willow Avenue,,,,,,,
-74.0463793,40.9094434,121,Willow Avenue,,,,,,,
-74.4914399,40.5375056,121,Willow Avenue,,,,,,,
-74.034547,40.7389857,122,Willow Avenue,,,,,,,
-74.3175621,40.6519757,122,Willow Avenue,,,,,,,
-74.491721,40.5379252,122,Willow Avenue,,,,,,,
-74.0338703,40.7389244,123,Willow Avenue,,,,,,,
-74.0338775,40.7389005,123,Willow Avenue,,,,,,,
-74.0339231,40.7389338,123,Willow Avenue,,,,,,,
-74.0339304,40.7389098,123,Willow Avenue,,,,,,,
-74.0339766,40.7389431,123,Willow Avenue,,,,,,,
-74.0339839,40.7389192,123,Willow Avenue,,,,,,,
-74.03403,40.7389525,123,Willow Avenue,,,,,,,
-74.0340373,40.7389286,123,Willow Avenue,,,,,,,
-74.0340835,40.7389619,123,Willow Avenue,,,,,,,
-74.0340908,40.738938,123,Willow Avenue,,,,,,,
-74.3175299,40.651534,123,Willow Avenue,,,,,,,
-74.2455913,40.4008814,124,Willow Avenue,,,,,,,
-74.0338488,40.7389947,125,Willow Avenue,,,,,,,
-74.0339018,40.739004,125,Willow Avenue,,,,,,,
-74.0339094,40.7389791,125,Willow Avenue,,,,,,,
-74.0339552,40.7390135,125,Willow Avenue,,,,,,,
-74.0339628,40.7389885,125,Willow Avenue,,,,,,,
-74.0340086,40.7390229,125,Willow Avenue,,,,,,,
-74.0340162,40.7389978,125,Willow Avenue,,,,,,,
-74.0340621,40.7390322,125,Willow Avenue,,,,,,,
-74.0340697,40.7390073,125,Willow Avenue,,,,,,,
-74.0465721,40.9095537,125,Willow Avenue,,,,,,,
-74.5060905,40.5214806,125,Willow Avenue,,,,,,,
-74.3177393,40.6519515,126,Willow Avenue,,,,,,,
-74.0339109,40.7390673,127,Willow Avenue,,,,,,,
-74.0338484,40.7391452,129,Willow Avenue,,,,,,,
-74.0338564,40.7391189,129,Willow Avenue,,,,,,,
-74.0338927,40.739153,129,Willow Avenue,,,,,,,
-74.0339006,40.7391266,129,Willow Avenue,,,,,,,
-74.0339362,40.7391606,129,Willow Avenue,,,,,,,
-74.0339443,40.7391342,129,Willow Avenue,,,,,,,
-74.0339799,40.7391683,129,Willow Avenue,,,,,,,
-74.0339879,40.7391419,129,Willow Avenue,,,,,,,
-74.0340235,40.739176,129,Willow Avenue,,,,,,,
-74.0340315,40.7391496,129,Willow Avenue,,,,,,,
-74.2452437,40.4005787,129,Willow Avenue,,,,,,,
-74.3176717,40.6515146,129,Willow Avenue,,,,,,,
-74.0339429,40.739225,131,Willow Avenue,,,,,,,
-74.3178845,40.6514857,131,Willow Avenue,,,,,,,
-74.0464291,40.9100019,132,Willow Avenue,,,,,,,
-74.2457715,40.40073,132,Willow Avenue,,,,,,,
-74.0468397,40.9097251,133,Willow Avenue,,,,,,,
-74.2458307,40.4006802,134,Willow Avenue,,,,,,,
-74.3179875,40.6519177,134,Willow Avenue,,,,,,,
-74.2455145,40.4003507,135,Willow Avenue,,,,,,,
-74.0465807,40.9100895,136,Willow Avenue,,,,,,,
-74.2459224,40.4006048,136,Willow Avenue,,,,,,,
-74.0469883,40.9098132,137,Willow Avenue,,,,,,,
-74.3180263,40.6514665,137,Willow Avenue,,,,,,,
-74.3181293,40.6518985,138,Willow Avenue,,,,,,,
-74.2458134,40.4000984,139,Willow Avenue,,,,,,,
-74.0467279,40.9101753,140,Willow Avenue,,,,,,,
-75.1005826,40.6442671,140,Willow Avenue,,,,,,,
-74.0471334,40.909899,141,Willow Avenue,,,,,,,
-74.440502,40.6112321,141,Willow Avenue,,,,,,,
-74.2460459,40.4005024,142,Willow Avenue,,,,,,,
-74.3182889,40.6518767,142,Willow Avenue,,,,,,,
-74.3181858,40.6514448,143,Willow Avenue,,,,,,,
-74.0468735,40.9102614,144,Willow Avenue,,,,,,,
-74.3184662,40.6518526,144,Willow Avenue,,,,,,,
-74.0472823,40.9099873,145,Willow Avenue,,,,,,,
-74.3183631,40.6514206,149,Willow Avenue,,,,,,,
-74.2462287,40.4003498,150,Willow Avenue,,,,,,,
-74.3186612,40.6518262,150,Willow Avenue,,,,,,,
-74.5061677,40.5207443,150,Willow Avenue,,,,,,,
-74.3185403,40.6513966,153,Willow Avenue,,,,,,,
-74.2461745,40.399794,155,Willow Avenue,,,,,,,
-74.3188384,40.6518021,156,Willow Avenue,,,,,,,
-74.3187176,40.6513725,157,Willow Avenue,,,,,,,
-74.2464788,40.400142,160,Willow Avenue,,,,,,,
-74.3189979,40.6517803,160,Willow Avenue,,,,,,,
-74.5058383,40.5210643,160,Willow Avenue,,,,,,,
-74.3188948,40.6513484,161,Willow Avenue,,,,,,,
-74.5064345,40.5212575,161,Willow Avenue,,,,,,,
-74.3191752,40.6517563,164,Willow Avenue,,,,,,,
-74.5066959,40.5210072,165,Willow Avenue,,,,,,,
-74.3190721,40.6513243,167,Willow Avenue,,,,,,,
-74.0476289,40.9107227,168,Willow Avenue,,,,,,,
-74.2466794,40.3993522,171,Willow Avenue,,,,,,,
-74.0477726,40.9108067,172,Willow Avenue,,,,,,,
-74.2468711,40.3997923,172,Willow Avenue,,,,,,,
-74.5074539,40.5208206,173,Willow Avenue,,,,,,,
-74.0479156,40.9108894,174,Willow Avenue,,,,,,,
-74.0480565,40.9109707,178,Willow Avenue,,,,,,,
-74.0486951,40.9113463,196,Willow Avenue,,,,,,,
-74.048844,40.9114316,200,Willow Avenue,,,,,,,
-73.9470651,41.0089674,201,Willow Avenue,,,,,,,
-74.0493105,40.9110532,201,Willow Avenue,,,,,,,
-74.4909454,40.537693,201,Willow Avenue,,,,,,,
-73.9468787,41.0084638,202,Willow Avenue,,,,,,,
-74.4912266,40.5381189,202,Willow Avenue,,,,,,,
-74.0494192,40.9111181,203,Willow Avenue,,,,,,,
-73.9466333,41.0083601,204,Willow Avenue,,,,,,,
-74.0342012,40.7396444,204,Willow Avenue,,,,,,,
-74.0342082,40.7396213,204,Willow Avenue,,,,,,,
-74.0342519,40.7396533,204,Willow Avenue,,,,,,,
-74.034259,40.7396302,204,Willow Avenue,,,,,,,
-74.0343024,40.7396622,204,Willow Avenue,,,,,,,
-74.0343094,40.7396391,204,Willow Avenue,,,,,,,
-74.0343513,40.7396708,204,Willow Avenue,,,,,,,
-74.0343583,40.7396477,204,Willow Avenue,,,,,,,
-74.0490919,40.9110578,205,Willow Avenue,,,,,,,
-74.2917152,40.98431,205,Willow Avenue,,,,,,,
-74.3195153,40.651264,205,Willow Avenue,,,,,,,
-74.4906366,40.5378166,205,Willow Avenue,,,,,,,
-73.94634,41.0082384,206,Willow Avenue,,,,,,,
-74.0341903,40.739701,206,Willow Avenue,,,,,,,
-74.0342567,40.7397127,206,Willow Avenue,,,,,,,
-74.0343248,40.7397247,206,Willow Avenue,,,,,,,
-74.048957,40.9116241,206,Willow Avenue,,,,,,,
-74.4909068,40.5382415,206,Willow Avenue,,,,,,,
-73.9463642,41.0086777,207,Willow Avenue,,,,,,,
-74.0341259,40.7398682,208,Willow Avenue,,,,,,,
-74.0341698,40.739876,208,Willow Avenue,,,,,,,
-74.0342026,40.7397683,208,Willow Avenue,,,,,,,
-74.0342256,40.7398858,208,Willow Avenue,,,,,,,
-74.0342475,40.7398141,208,Willow Avenue,,,,,,,
-74.0342706,40.7399315,208,Willow Avenue,,,,,,,
-74.0343033,40.7398239,208,Willow Avenue,,,,,,,
-74.0343143,40.739788,208,Willow Avenue,,,,,,,
-73.9460885,41.0085629,209,Willow Avenue,,,,,,,
-74.4903267,40.5379379,209,Willow Avenue,,,,,,,
-74.0491298,40.9117213,210,Willow Avenue,,,,,,,
-74.4905867,40.5383668,210,Willow Avenue,,,,,,,
-74.0495867,40.9112241,211,Willow Avenue,,,,,,,
-74.2914722,40.9843367,211,Willow Avenue,,,,,,,
-74.3197634,40.6512303,211,Willow Avenue,,,,,,,
-74.4056826,40.6498122,211,Willow Avenue,,,,,,,
-74.4900168,40.5380592,213,Willow Avenue,,,,,,,
-74.0493022,40.9118235,214,Willow Avenue,,,,,,,
-74.2908692,40.9839552,214,Willow Avenue,,,,,,,
-74.4902666,40.5384921,214,Willow Avenue,,,,,,,
-74.0497759,40.9113392,215,Willow Avenue,,,,,,,
-74.2912059,40.9843412,215,Willow Avenue,,,,,,,
-74.4055401,40.6497264,215,Willow Avenue,,,,,,,
-74.4058468,40.649336,216,Willow Avenue,,,,,,,
-74.0336392,40.7399557,217,Willow Avenue,,,,,,,
-74.0499303,40.9113701,217,Willow Avenue,,,,,,,
-74.489707,40.5381805,217,Willow Avenue,,,,,,,
-74.034059,40.7401141,218,Willow Avenue,,,,,,,
-74.0340661,40.7400906,218,Willow Avenue,,,,,,,
-74.03411,40.7401231,218,Willow Avenue,,,,,,,
-74.0341171,40.7400997,218,Willow Avenue,,,,,,,
-74.0341595,40.7401318,218,Willow Avenue,,,,,,,
-74.0341666,40.7401083,218,Willow Avenue,,,,,,,
-74.0342083,40.7401404,218,Willow Avenue,,,,,,,
-74.0342155,40.740117,218,Willow Avenue,,,,,,,
-74.0495149,40.9119703,218,Willow Avenue,,,,,,,
-74.320097,40.6516309,218,Willow Avenue,,,,,,,
-74.4899464,40.5386175,218,Willow Avenue,,,,,,,
-74.0335867,40.7400316,219,Willow Avenue,,,,,,,
-74.0335941,40.7400074,219,Willow Avenue,,,,,,,
-74.0336632,40.740045,219,Willow Avenue,,,,,,,
-74.0336705,40.7400209,219,Willow Avenue,,,,,,,
-74.0337385,40.7400583,219,Willow Avenue,,,,,,,
-74.0337459,40.7400342,219,Willow Avenue,,,,,,,
-74.0341779,40.7401951,220,Willow Avenue,,,,,,,
-74.4057037,40.6492491,220,Willow Avenue,,,,,,,
-74.0335529,40.7401094,221,Willow Avenue,,,,,,,
-74.0335622,40.7400786,221,Willow Avenue,,,,,,,
-74.0336098,40.7401195,221,Willow Avenue,,,,,,,
-74.0336191,40.7400887,221,Willow Avenue,,,,,,,
-74.0336667,40.7401295,221,Willow Avenue,,,,,,,
-74.0336761,40.7400988,221,Willow Avenue,,,,,,,
-74.0337237,40.7401396,221,Willow Avenue,,,,,,,
-74.033733,40.7401088,221,Willow Avenue,,,,,,,
-74.4053988,40.6496407,221,Willow Avenue,,,,,,,
-74.4893971,40.5383018,221,Willow Avenue,,,,,,,
-74.0340186,40.7402683,222,Willow Avenue,,,,,,,
-74.0340247,40.7402484,222,Willow Avenue,,,,,,,
-74.034031,40.7402279,222,Willow Avenue,,,,,,,
-74.0340879,40.7402806,222,Willow Avenue,,,,,,,
-74.0340941,40.7402606,222,Willow Avenue,,,,,,,
-74.0341003,40.7402401,222,Willow Avenue,,,,,,,
-74.0341549,40.7402924,222,Willow Avenue,,,,,,,
-74.0341609,40.7402725,222,Willow Avenue,,,,,,,
-74.0341672,40.7402519,222,Willow Avenue,,,,,,,
-74.3202742,40.6516068,222,Willow Avenue,,,,,,,
-74.4896296,40.5387442,222,Willow Avenue,,,,,,,
-74.2908937,40.9843155,223,Willow Avenue,,,,,,,
-74.3204072,40.6515886,224,Willow Avenue,,,,,,,
-74.4055597,40.6491619,224,Willow Avenue,,,,,,,
-74.3199407,40.6512062,225,Willow Avenue,,,,,,,
-74.405257,40.6495553,225,Willow Avenue,,,,,,,
-74.4890872,40.5384231,225,Willow Avenue,,,,,,,
-74.0335348,40.7402975,227,Willow Avenue,,,,,,,
-74.3202597,40.6511627,227,Willow Avenue,,,,,,,
-74.405116,40.6494703,227,Willow Avenue,,,,,,,
-73.9895044,40.2957968,228,Willow Avenue,,,,,,,
-74.0340461,40.740448,228,Willow Avenue,,,,,,,
-74.320549,40.6515694,228,Willow Avenue,,,,,,,
-74.033536,40.7403815,229,Willow Avenue,,,,,,,
-74.0335433,40.7403574,229,Willow Avenue,,,,,,,
-74.0335751,40.7403884,229,Willow Avenue,,,,,,,
-74.0335824,40.7403643,229,Willow Avenue,,,,,,,
-74.0336136,40.7403952,229,Willow Avenue,,,,,,,
-74.033621,40.7403711,229,Willow Avenue,,,,,,,
-74.0336527,40.740402,229,Willow Avenue,,,,,,,
-74.0336601,40.740378,229,Willow Avenue,,,,,,,
-74.4887757,40.5385423,229,Willow Avenue,,,,,,,
-74.0335417,40.7404411,231,Willow Avenue,,,,,,,
-74.2905348,40.9843521,231,Willow Avenue,,,,,,,
-74.3204725,40.6511338,231,Willow Avenue,,,,,,,
-73.9896326,40.2962212,232,Willow Avenue,,,,,,,
-74.0340226,40.7405884,232,Willow Avenue,,,,,,,
-74.033503,40.7405085,233,Willow Avenue,,,,,,,
-74.0335083,40.7404908,233,Willow Avenue,,,,,,,
-74.033556,40.7405179,233,Willow Avenue,,,,,,,
-74.0335614,40.7405002,233,Willow Avenue,,,,,,,
-74.0336086,40.7405272,233,Willow Avenue,,,,,,,
-74.033614,40.7405095,233,Willow Avenue,,,,,,,
-74.2904419,40.9838775,234,Willow Avenue,,,,,,,
-74.320744,40.6515429,234,Willow Avenue,,,,,,,
-74.3207207,40.6511,237,Willow Avenue,,,,,,,
-74.2901777,40.9843857,239,Willow Avenue,,,,,,,
-74.3209744,40.6515115,240,Willow Avenue,,,,,,,
-74.2898671,40.9839368,242,Willow Avenue,,,,,,,
-74.3209336,40.6510709,245,Willow Avenue,,,,,,,
-74.2898154,40.9844203,247,Willow Avenue,,,,,,,
-74.3210754,40.6510519,247,Willow Avenue,,,,,,,
-74.3212137,40.6514789,248,Willow Avenue,,,,,,,
-74.2894934,40.9839693,250,Willow Avenue,,,,,,,
-74.321391,40.6514549,250,Willow Avenue,,,,,,,
-74.3212613,40.6510265,253,Willow Avenue,,,,,,,
-74.3215328,40.6514355,254,Willow Avenue,,,,,,,
-73.9901795,40.2970763,255,Willow Avenue,,,,,,,
-74.2894883,40.9844506,255,Willow Avenue,,,,,,,
-73.9904202,40.2967894,256,Willow Avenue,,,,,,,
-73.9903196,40.2971374,257,Willow Avenue,,,,,,,
-74.289169,40.9839976,257,Willow Avenue,,,,,,,
-73.9907776,40.2967188,260,Willow Avenue,,,,,,,
-74.3216746,40.6514162,260,Willow Avenue,,,,,,,
-74.3214474,40.6510012,261,Willow Avenue,,,,,,,
-74.3218519,40.6513921,266,Willow Avenue,,,,,,,
-74.3216867,40.6509686,269,Willow Avenue,,,,,,,
-74.1283138,40.81592,271,Willow Avenue,,,,,,,
-73.9912257,40.2969261,272,Willow Avenue,,,,,,,
-74.1277457,40.8155961,274,Willow Avenue,,,,,,,
-74.1283869,40.8158459,275,Willow Avenue,,,,,,,
-74.1278268,40.8155155,276,Willow Avenue,,,,,,,
-73.9913714,40.297577,277,Willow Avenue,,,,,,,
-74.1278524,40.81541,278,Willow Avenue,,,,,,,
-74.1284617,40.8157747,279,Willow Avenue,,,,,,,
-74.128529,40.8157018,281,Willow Avenue,,,,,,,
-74.1279324,40.8153291,282,Willow Avenue,,,,,,,
-74.1286046,40.8156236,283,Willow Avenue,,,,,,,
-73.9915977,40.2970985,284,Willow Avenue,,,,,,,
-74.1280173,40.8152435,284,Willow Avenue,,,,,,,
-74.1286865,40.8155481,285,Willow Avenue,,,,,,,
-73.9917245,40.2971575,286,Willow Avenue,,,,,,,
-74.1280963,40.8151694,286,Willow Avenue,,,,,,,
-74.1287589,40.8154744,287,Willow Avenue,,,,,,,
-74.1281678,40.8150969,288,Willow Avenue,,,,,,,
-74.1288389,40.8153957,289,Willow Avenue,,,,,,,
-73.9918261,40.2972276,290,Willow Avenue,,,,,,,
-74.128241,40.8150263,290,Willow Avenue,,,,,,,
-73.9916381,40.2976891,291,Willow Avenue,,,,,,,
-74.1289119,40.8153218,291,Willow Avenue,,,,,,,
-73.9919375,40.2972616,292,Willow Avenue,,,,,,,
-74.1283515,40.8149702,292,Willow Avenue,,,,,,,
-74.128985,40.8152476,293,Willow Avenue,,,,,,,
-74.1284223,40.8149022,294,Willow Avenue,,,,,,,
-74.129056,40.8151779,295,Willow Avenue,,,,,,,
-73.9920679,40.2973204,296,Willow Avenue,,,,,,,
-74.1284805,40.8148397,296,Willow Avenue,,,,,,,
-73.9922289,40.2973761,300,Willow Avenue,,,,,,,
-74.5538992,39.4782738,300,Willow Avenue,,,,,,,
-74.0335133,40.7407082,301,Willow Avenue,,,,,,,
-74.1294203,40.8146897,301,Willow Avenue,,,,,,,
-74.3221387,40.6509072,301,Willow Avenue,,,,,,,
-74.5544964,39.4783653,301,Willow Avenue,,,,,,,
-73.9923864,40.2974394,302,Willow Avenue,,,,,,,
-74.3222418,40.6513391,302,Willow Avenue,,,,,,,
-74.4891448,40.5389341,302,Willow Avenue,,,,,,,
-74.5539701,39.4779921,302,Willow Avenue,,,,,,,
-74.033492,40.7407771,303,Willow Avenue,,,,,,,
-74.5545788,39.4780502,303,Willow Avenue,,,,,,,
-74.5540145,39.4778215,304,Willow Avenue,,,,,,,
-74.0333632,40.7408258,305,Willow Avenue,,,,,,,
-74.1295117,40.8145993,305,Willow Avenue,,,,,,,
-74.5546465,39.4777789,305,Willow Avenue,,,,,,,
-74.3223836,40.6513198,306,Willow Avenue,,,,,,,
-74.488826,40.5390562,306,Willow Avenue,,,,,,,
-74.5540665,39.4776175,306,Willow Avenue,,,,,,,
-74.0333661,40.740895,307,Willow Avenue,,,,,,,
-74.1296036,40.8145061,307,Willow Avenue,,,,,,,
-74.3222628,40.6508902,307,Willow Avenue,,,,,,,
-74.5546986,39.4775742,307,Willow Avenue,,,,,,,
-73.9925339,40.2975073,308,Willow Avenue,,,,,,,
-74.1291535,40.8141277,308,Willow Avenue,,,,,,,
-74.5541183,39.4774146,308,Willow Avenue,,,,,,,
-74.1297583,40.8144591,309,Willow Avenue,,,,,,,
-74.3223692,40.6508758,309,Willow Avenue,,,,,,,
-74.4042249,40.6489385,309,Willow Avenue,,,,,,,
-74.1292233,40.8140607,310,Willow Avenue,,,,,,,
-74.4045919,40.6485835,310,Willow Avenue,,,,,,,
-74.4885059,40.5391815,310,Willow Avenue,,,,,,,
-74.5541867,39.4771457,310,Willow Avenue,,,,,,,
-74.1298361,40.8143875,311,Willow Avenue,,,,,,,
-74.5547501,39.4773736,311,Willow Avenue,,,,,,,
-73.9926888,40.2975599,312,Willow Avenue,,,,,,,
-74.1293198,40.8139652,312,Willow Avenue,,,,,,,
-74.5542223,39.4770115,312,Willow Avenue,,,,,,,
-74.0333111,40.7410699,313,Willow Avenue,,,,,,,
-74.1299095,40.814314,313,Willow Avenue,,,,,,,
-74.5548096,39.4771363,313,Willow Avenue,,,,,,,
-74.4044505,40.6485024,314,Willow Avenue,,,,,,,
-74.4881858,40.5393068,314,Willow Avenue,,,,,,,
-74.5542591,39.4768613,314,Willow Avenue,,,,,,,
-74.0333223,40.7411393,315,Willow Avenue,,,,,,,
-74.0333564,40.7411453,315,Willow Avenue,,,,,,,
-74.0333905,40.7411512,315,Willow Avenue,,,,,,,
-74.0334249,40.7411573,315,Willow Avenue,,,,,,,
-74.1299805,40.8142408,315,Willow Avenue,,,,,,,
-74.3225819,40.6508469,315,Willow Avenue,,,,,,,
-74.4040813,40.6488547,315,Willow Avenue,,,,,,,
-74.5548985,39.4767977,315,Willow Avenue,,,,,,,
-73.9928486,40.2976217,316,Willow Avenue,,,,,,,
-74.1294346,40.8138503,316,Willow Avenue,,,,,,,
-74.4043068,40.648417,316,Willow Avenue,,,,,,,
-74.0333118,40.7411969,317,Willow Avenue,,,,,,,
-74.033358,40.741205,317,Willow Avenue,,,,,,,
-74.0334029,40.7412129,317,Willow Avenue,,,,,,,
-74.1300557,40.8141699,317,Willow Avenue,,,,,,,
-74.3226794,40.6508335,317,Willow Avenue,,,,,,,
-74.4039376,40.6487705,317,Willow Avenue,,,,,,,
-74.5549957,39.4763861,317,Willow Avenue,,,,,,,
-74.1295253,40.813761,318,Willow Avenue,,,,,,,
-74.3225963,40.6512909,318,Willow Avenue,,,,,,,
-74.4878656,40.5394322,318,Willow Avenue,,,,,,,
-74.5544058,39.4762671,318,Willow Avenue,,,,,,,
-74.033247,40.7412342,319,Willow Avenue,,,,,,,
-74.1301251,40.8140974,319,Willow Avenue,,,,,,,
-74.5550577,39.4761435,319,Willow Avenue,,,,,,,
-73.9930034,40.2976863,320,Willow Avenue,,,,,,,
-74.1296036,40.8136818,320,Willow Avenue,,,,,,,
-74.3228091,40.651262,320,Willow Avenue,,,,,,,
-74.554474,39.4759945,320,Willow Avenue,,,,,,,
-74.0332299,40.74129,321,Willow Avenue,,,,,,,
-74.1302023,40.8140239,321,Willow Avenue,,,,,,,
-74.3228123,40.6508155,321,Willow Avenue,,,,,,,
-74.4037931,40.6486863,321,Willow Avenue,,,,,,,
-74.5551202,39.4758878,321,Willow Avenue,,,,,,,
-73.993143,40.2977359,322,Willow Avenue,,,,,,,
-74.1296831,40.8136016,322,Willow Avenue,,,,,,,
-74.3229686,40.6512402,322,Willow Avenue,,,,,,,
-74.4041271,40.648313,322,Willow Avenue,,,,,,,
-74.4875488,40.5395589,322,Willow Avenue,,,,,,,
-74.5545333,39.4757618,322,Willow Avenue,,,,,,,
-74.0332154,40.7413435,323,Willow Avenue,,,,,,,
-74.130283,40.8139427,323,Willow Avenue,,,,,,,
-74.5551908,39.4756202,323,Willow Avenue,,,,,,,
-73.9932594,40.2977817,324,Willow Avenue,,,,,,,
-74.3231458,40.6512161,324,Willow Avenue,,,,,,,
-74.5546283,39.4753931,324,Willow Avenue,,,,,,,
-74.0331499,40.7414858,325,Willow Avenue,,,,,,,
-74.0332629,40.7414556,325,Willow Avenue,,,,,,,
-74.3229896,40.6507913,325,Willow Avenue,,,,,,,
-74.4036862,40.648623,325,Willow Avenue,,,,,,,
-74.555268,39.4753214,325,Willow Avenue,,,,,,,
-74.1297575,40.8135293,326,Willow Avenue,,,,,,,
-74.4039494,40.6482085,326,Willow Avenue,,,,,,,
-74.5546988,39.475109,326,Willow Avenue,,,,,,,
-74.5553299,39.4750684,327,Willow Avenue,,,,,,,
-73.9934236,40.2977134,328,Willow Avenue,,,,,,,
-74.3232788,40.651198,328,Willow Avenue,,,,,,,
-74.5547484,39.4749261,328,Willow Avenue,,,,,,,
-74.0331145,40.7415663,329,Willow Avenue,,,,,,,
-74.0331218,40.7415424,329,Willow Avenue,,,,,,,
-74.0331701,40.7415761,329,Willow Avenue,,,,,,,
-74.0331774,40.7415523,329,Willow Avenue,,,,,,,
-74.0332253,40.7415858,329,Willow Avenue,,,,,,,
-74.0332325,40.741562,329,Willow Avenue,,,,,,,
-74.0332814,40.7415957,329,Willow Avenue,,,,,,,
-74.1303785,40.8138442,329,Willow Avenue,,,,,,,
-74.3231491,40.6507697,329,Willow Avenue,,,,,,,
-74.403578,40.6485608,329,Willow Avenue,,,,,,,
-73.9935628,40.2978822,330,Willow Avenue,,,,,,,
-74.129829,40.813457,330,Willow Avenue,,,,,,,
-74.3234601,40.6511269,330,Willow Avenue,,,,,,,
-74.4038066,40.6481258,330,Willow Avenue,,,,,,,
-74.3233529,40.6507419,331,Willow Avenue,,,,,,,
-73.9936801,40.2979935,332,Willow Avenue,,,,,,,
-74.3234077,40.6512269,332,Willow Avenue,,,,,,,
-74.1304731,40.8137565,333,Willow Avenue,,,,,,,
-74.4034334,40.648476,333,Willow Avenue,,,,,,,
-74.4871908,40.5380313,333,Willow Avenue,,,,,,,
-74.4036644,40.6480423,334,Willow Avenue,,,,,,,
-74.1305394,40.8136844,335,Willow Avenue,,,,,,,
-74.3236112,40.6511528,336,Willow Avenue,,,,,,,
-74.1306132,40.8136167,337,Willow Avenue,,,,,,,
-74.3236041,40.6507078,337,Willow Avenue,,,,,,,
-74.4032903,40.648393,337,Willow Avenue,,,,,,,
-74.1299246,40.8133601,338,Willow Avenue,,,,,,,
-74.3237219,40.6511378,338,Willow Avenue,,,,,,,
-74.4035209,40.6479581,338,Willow Avenue,,,,,,,
-74.3237813,40.6506836,343,Willow Avenue,,,,,,,
-74.4031304,40.6482996,343,Willow Avenue,,,,,,,
-74.1300731,40.8132923,344,Willow Avenue,,,,,,,
-74.4033757,40.6478742,344,Willow Avenue,,,,,,,
-74.3238847,40.6506696,345,Willow Avenue,,,,,,,
-74.103137,40.0957135,346,Willow Avenue,,,,,,,
-74.3239612,40.6511052,346,Willow Avenue,,,,,,,
-74.1036114,40.0960435,347,Willow Avenue,,,,,,,
-74.3239734,40.6506575,347,Willow Avenue,,,,,,,
-74.4029506,40.6481945,347,Willow Avenue,,,,,,,
-74.103408,40.0955626,348,Willow Avenue,,,,,,,
-74.3242271,40.651069,348,Willow Avenue,,,,,,,
-74.4032299,40.6477891,348,Willow Avenue,,,,,,,
-73.994,40.298568,349,Willow Avenue,,,,,,,
-74.103833,40.0958968,349,Willow Avenue,,,,,,,
-74.324062,40.6506455,349,Willow Avenue,,,,,,,
-74.3243528,40.6509822,350,Willow Avenue,,,,,,,
-74.1039421,40.0958163,351,Willow Avenue,,,,,,,
-74.3241506,40.6506334,351,Willow Avenue,,,,,,,
-74.4027864,40.6480991,351,Willow Avenue,,,,,,,
-73.9944162,40.2981192,352,Willow Avenue,,,,,,,
-74.1038683,40.0952552,352,Willow Avenue,,,,,,,
-74.4030841,40.6477032,352,Willow Avenue,,,,,,,
-73.9941526,40.2986511,353,Willow Avenue,,,,,,,
-74.1041141,40.095544,353,Willow Avenue,,,,,,,
-74.104117,40.0950878,354,Willow Avenue,,,,,,,
-74.4029374,40.6476192,354,Willow Avenue,,,,,,,
-74.4026429,40.6480154,355,Willow Avenue,,,,,,,
-73.9945746,40.2982072,356,Willow Avenue,,,,,,,
-74.1042511,40.0949973,356,Willow Avenue,,,,,,,
-73.9943501,40.2986755,357,Willow Avenue,,,,,,,
-74.1045569,40.0952154,357,Willow Avenue,,,,,,,
-73.9947278,40.2982909,358,Willow Avenue,,,,,,,
-74.1045931,40.094745,358,Willow Avenue,,,,,,,
-74.4027929,40.6475342,358,Willow Avenue,,,,,,,
-73.9948591,40.2983627,360,Willow Avenue,,,,,,,
-74.4024663,40.6479123,361,Willow Avenue,,,,,,,
-74.4026486,40.6474485,364,Willow Avenue,,,,,,,
-73.9944542,40.2988167,365,Willow Avenue,,,,,,,
-74.4022496,40.6477867,365,Willow Avenue,,,,,,,
-73.9946002,40.2988964,367,Willow Avenue,,,,,,,
-73.9950014,40.2984403,368,Willow Avenue,,,,,,,
-73.9950982,40.2985789,372,Willow Avenue,,,,,,,
-73.9952433,40.2986582,376,Willow Avenue,,,,,,,
-73.9952213,40.2991508,383,Willow Avenue,,,,,,,
-73.995583,40.2987647,384,Willow Avenue,,,,,,,
-73.9953669,40.2992314,387,Willow Avenue,,,,,,,
-73.995735,40.2988454,388,Willow Avenue,,,,,,,
-73.9954592,40.2993678,391,Willow Avenue,,,,,,,
-73.995881,40.2989251,392,Willow Avenue,,,,,,,
-73.9956594,40.2993901,395,Willow Avenue,,,,,,,
-73.9960267,40.299005,396,Willow Avenue,,,,,,,
-73.996158,40.2990767,398,Willow Avenue,,,,,,,
-73.9957486,40.29953,399,Willow Avenue,,,,,,,
-73.9962748,40.2991404,400,Willow Avenue,,,,,,,
-74.0336709,40.7424625,400,Willow Avenue,,,,,,,
-74.3253616,40.6509146,400,Willow Avenue,,,,,,,
-74.5548064,39.4746308,400,Willow Avenue,,,,,,,
-74.4867798,40.5393239,401,Willow Avenue,,,,,,,
-74.5554328,39.474653,401,Willow Avenue,,,,,,,
-73.9963772,40.2991959,402,Willow Avenue,,,,,,,
-74.4870644,40.5397485,402,Willow Avenue,,,,,,,
-74.5548955,39.474266,402,Willow Avenue,,,,,,,
-73.9958935,40.2996107,403,Willow Avenue,,,,,,,
-74.5554932,39.474415,403,Willow Avenue,,,,,,,
-73.996465,40.2992435,404,Willow Avenue,,,,,,,
-74.3254946,40.6508965,404,Willow Avenue,,,,,,,
-74.5549617,39.4739963,404,Willow Avenue,,,,,,,
-74.3254038,40.6504629,405,Willow Avenue,,,,,,,
-74.486464,40.5394502,405,Willow Avenue,,,,,,,
-74.5555458,39.4741891,405,Willow Avenue,,,,,,,
-73.9965518,40.2992903,406,Willow Avenue,,,,,,,
-74.3256009,40.6508821,406,Willow Avenue,,,,,,,
-74.4867461,40.5398704,406,Willow Avenue,,,,,,,
-74.5550195,39.4737634,406,Willow Avenue,,,,,,,
-73.9960242,40.2996832,407,Willow Avenue,,,,,,,
-74.5556092,39.4739322,407,Willow Avenue,,,,,,,
-74.5550872,39.4734974,408,Willow Avenue,,,,,,,
-74.1314181,40.8129556,409,Willow Avenue,,,,,,,
-74.2756252,40.6628411,409,Willow Avenue,,,,,,,
-74.3255421,40.650444,409,Willow Avenue,,,,,,,
-74.4010123,40.6474486,409,Willow Avenue,,,,,,,
-74.4861439,40.5395755,409,Willow Avenue,,,,,,,
-74.5556805,39.4736524,409,Willow Avenue,,,,,,,
-74.2760975,40.6626052,410,Willow Avenue,,,,,,,
-74.3257338,40.650864,410,Willow Avenue,,,,,,,
-74.486426,40.5399958,410,Willow Avenue,,,,,,,
-74.5551552,39.4732279,410,Willow Avenue,,,,,,,
-73.9961551,40.2997555,411,Willow Avenue,,,,,,,
-74.3257193,40.65042,411,Willow Avenue,,,,,,,
-74.5557566,39.4733527,411,Willow Avenue,,,,,,,
-74.2761677,40.6627471,412,Willow Avenue,,,,,,,
-74.3259111,40.6508398,412,Willow Avenue,,,,,,,
-74.4013583,40.6469519,412,Willow Avenue,,,,,,,
-74.5552713,39.4727702,412,Willow Avenue,,,,,,,
-73.996286,40.2998276,413,Willow Avenue,,,,,,,
-74.4858237,40.5397009,413,Willow Avenue,,,,,,,
-74.5558595,39.472955,413,Willow Avenue,,,,,,,
-73.996668,40.2993529,414,Willow Avenue,,,,,,,
-74.3260706,40.6508182,414,Willow Avenue,,,,,,,
-74.4861059,40.5401211,414,Willow Avenue,,,,,,,
-74.5553571,39.4724214,414,Willow Avenue,,,,,,,
-73.9963876,40.299884,415,Willow Avenue,,,,,,,
-74.2756704,40.6629747,415,Willow Avenue,,,,,,,
-74.3258966,40.6503959,415,Willow Avenue,,,,,,,
-74.400872,40.6473622,415,Willow Avenue,,,,,,,
-74.5559684,39.4725124,415,Willow Avenue,,,,,,,
-73.9968117,40.2994402,416,Willow Avenue,,,,,,,
-74.4011454,40.6468212,416,Willow Avenue,,,,,,,
-73.9964896,40.299946,417,Willow Avenue,,,,,,,
-74.4007306,40.6472753,417,Willow Avenue,,,,,,,
-74.4855036,40.5398261,417,Willow Avenue,,,,,,,
-74.5560335,39.4722482,417,Willow Avenue,,,,,,,
-74.2762508,40.6628842,418,Willow Avenue,,,,,,,
-74.4857857,40.5402464,418,Willow Avenue,,,,,,,
-74.5554378,39.4720898,418,Willow Avenue,,,,,,,
-73.9966118,40.2999875,419,Willow Avenue,,,,,,,
-74.2757648,40.6631305,419,Willow Avenue,,,,,,,
-74.5560739,39.4720794,419,Willow Avenue,,,,,,,
-74.2763262,40.6630088,420,Willow Avenue,,,,,,,
-74.5554959,39.4718569,420,Willow Avenue,,,,,,,
-73.9966989,40.3000379,421,Willow Avenue,,,,,,,
-74.3260739,40.6503717,421,Willow Avenue,,,,,,,
-74.4851836,40.5399487,421,Willow Avenue,,,,,,,
-74.5561251,39.4718797,421,Willow Avenue,,,,,,,
-73.9969291,40.2995358,422,Willow Avenue,,,,,,,
-74.4854684,40.5403733,422,Willow Avenue,,,,,,,
-74.5555299,39.4717241,422,Willow Avenue,,,,,,,
-73.9967863,40.3000855,423,Willow Avenue,,,,,,,
-74.2758403,40.6632551,423,Willow Avenue,,,,,,,
-74.4005892,40.6471885,423,Willow Avenue,,,,,,,
-74.5561997,39.4715847,423,Willow Avenue,,,,,,,
-73.9970424,40.2995961,424,Willow Avenue,,,,,,,
-74.3263542,40.6507796,424,Willow Avenue,,,,,,,
-74.4009672,40.6467137,424,Willow Avenue,,,,,,,
-74.5555678,39.4715745,424,Willow Avenue,,,,,,,
-73.9968757,40.3001296,425,Willow Avenue,,,,,,,
-74.3262511,40.6503476,425,Willow Avenue,,,,,,,
-74.5562934,39.4711912,425,Willow Avenue,,,,,,,
-73.9971439,40.2996524,426,Willow Avenue,,,,,,,
-74.2764206,40.6631646,426,Willow Avenue,,,,,,,
-74.4008608,40.6466484,426,Willow Avenue,,,,,,,
-74.5557076,39.4710349,426,Willow Avenue,,,,,,,
-74.2759346,40.6634109,427,Willow Avenue,,,,,,,
-74.3264071,40.6503263,427,Willow Avenue,,,,,,,
-74.4004472,40.6471006,427,Willow Avenue,,,,,,,
-74.5563343,39.4710297,427,Willow Avenue,,,,,,,
-73.9972461,40.2996995,428,Willow Avenue,,,,,,,
-74.5557838,39.470737,428,Willow Avenue,,,,,,,
-74.3265454,40.6503075,429,Willow Avenue,,,,,,,
-74.5563686,39.4708955,429,Willow Avenue,,,,,,,
-73.997319,40.2997118,430,Willow Avenue,,,,,,,
-74.2764961,40.6632892,430,Willow Avenue,,,,,,,
-74.4007528,40.6465821,430,Willow Avenue,,,,,,,
-74.5558437,39.4704995,430,Willow Avenue,,,,,,,
-74.4002764,40.6469955,431,Willow Avenue,,,,,,,
-74.5564378,39.4706258,431,Willow Avenue,,,,,,,
-74.2765527,40.6633828,432,Willow Avenue,,,,,,,
-74.3266379,40.650741,432,Willow Avenue,,,,,,,
-74.5559304,39.4701649,432,Willow Avenue,,,,,,,
-74.3266996,40.6502866,433,Willow Avenue,,,,,,,
-74.4001653,40.6469338,433,Willow Avenue,,,,,,,
-74.5564907,39.4704219,433,Willow Avenue,,,,,,,
-73.9974691,40.2998285,434,Willow Avenue,,,,,,,
-74.4006112,40.6464944,434,Willow Avenue,,,,,,,
-74.5559679,39.4700117,434,Willow Avenue,,,,,,,
-73.9969565,40.300217,435,Willow Avenue,,,,,,,
-74.2760479,40.6635979,435,Willow Avenue,,,,,,,
-74.3268715,40.6502632,435,Willow Avenue,,,,,,,
-74.4000904,40.646881,435,Willow Avenue,,,,,,,
-73.9975304,40.2999281,436,Willow Avenue,,,,,,,
-74.4004673,40.6464092,436,Willow Avenue,,,,,,,
-74.55603,39.4697706,436,Willow Avenue,,,,,,,
-74.3270311,40.6502414,437,Willow Avenue,,,,,,,
-74.5565592,39.4701513,437,Willow Avenue,,,,,,,
-74.2766282,40.6635074,438,Willow Avenue,,,,,,,
-74.3267974,40.6507192,438,Willow Avenue,,,,,,,
-74.5561278,39.4693735,438,Willow Avenue,,,,,,,
-73.9970749,40.3003247,439,Willow Avenue,,,,,,,
-74.3272083,40.6502174,439,Willow Avenue,,,,,,,
-74.5566105,39.4699501,439,Willow Avenue,,,,,,,
-73.9976283,40.3000349,440,Willow Avenue,,,,,,,
-74.1318919,40.8117834,440,Willow Avenue,,,,,,,
-74.2767132,40.6636476,440,Willow Avenue,,,,,,,
-74.3269392,40.6507,440,Willow Avenue,,,,,,,
-74.5561684,39.4692108,440,Willow Avenue,,,,,,,
-74.132286,40.8120562,441,Willow Avenue,,,,,,,
-74.2761422,40.6637537,441,Willow Avenue,,,,,,,
-74.3999494,40.6467943,441,Willow Avenue,,,,,,,
-74.5566529,39.4697908,441,Willow Avenue,,,,,,,
-74.4003262,40.6463223,442,Willow Avenue,,,,,,,
-74.5562128,39.4690197,442,Willow Avenue,,,,,,,
-73.9971764,40.3004385,443,Willow Avenue,,,,,,,
-74.5567526,39.4693901,443,Willow Avenue,,,,,,,
-74.1319699,40.8117101,444,Willow Avenue,,,,,,,
-74.2768075,40.6638034,444,Willow Avenue,,,,,,,
-74.5562679,39.4688037,444,Willow Avenue,,,,,,,
-74.1323664,40.81198,445,Willow Avenue,,,,,,,
-74.3998089,40.6467077,445,Willow Avenue,,,,,,,
-74.5568362,39.4690472,445,Willow Avenue,,,,,,,
-74.4001876,40.6462387,446,Willow Avenue,,,,,,,
-74.5563217,39.4685862,446,Willow Avenue,,,,,,,
-74.132046,40.8116324,448,Willow Avenue,,,,,,,
-74.5563894,39.4683173,448,Willow Avenue,,,,,,,
-74.1324471,40.8118979,449,Willow Avenue,,,,,,,
-74.5569267,39.4686759,449,Willow Avenue,,,,,,,
-74.5564677,39.4680032,450,Willow Avenue,,,,,,,
-74.5569956,39.4684099,451,Willow Avenue,,,,,,,
-74.5565888,39.4675244,452,Willow Avenue,,,,,,,
-74.5570489,39.4681964,453,Willow Avenue,,,,,,,
-74.5566527,39.4672598,454,Willow Avenue,,,,,,,
-74.5571726,39.4677044,455,Willow Avenue,,,,,,,
-74.5567059,39.4670489,456,Willow Avenue,,,,,,,
-74.5572674,39.4673151,457,Willow Avenue,,,,,,,
-74.5567567,39.4668438,458,Willow Avenue,,,,,,,
-74.5573256,39.4670791,459,Willow Avenue,,,,,,,
-74.5568541,39.4664596,460,Willow Avenue,,,,,,,
-74.5568976,39.4661927,462,Willow Avenue,,,,,,,
-74.1333425,40.8113907,471,Willow Avenue,,,,,,,
-74.1329109,40.8110786,474,Willow Avenue,,,,,,,
-74.276939,40.6641842,500,Willow Avenue,,,,,,,
-74.0326817,40.7431028,501,Willow Avenue,,,,,,,
-74.0326896,40.743077,501,Willow Avenue,,,,,,,
-74.0326976,40.7430506,501,Willow Avenue,,,,,,,
-74.0327057,40.7430241,501,Willow Avenue,,,,,,,
-74.0327137,40.7429977,501,Willow Avenue,,,,,,,
-74.0327218,40.7429713,501,Willow Avenue,,,,,,,
-74.0327285,40.7431111,501,Willow Avenue,,,,,,,
-74.0327298,40.7429448,501,Willow Avenue,,,,,,,
-74.0327363,40.7430853,501,Willow Avenue,,,,,,,
-74.0327379,40.7429183,501,Willow Avenue,,,,,,,
-74.0327444,40.7430588,501,Willow Avenue,,,,,,,
-74.0327459,40.7428919,501,Willow Avenue,,,,,,,
-74.0327524,40.7430324,501,Willow Avenue,,,,,,,
-74.0327605,40.7430059,501,Willow Avenue,,,,,,,
-74.0327685,40.7429795,501,Willow Avenue,,,,,,,
-74.0327742,40.7431191,501,Willow Avenue,,,,,,,
-74.0327766,40.742953,501,Willow Avenue,,,,,,,
-74.032782,40.7430933,501,Willow Avenue,,,,,,,
-74.0327846,40.7429266,501,Willow Avenue,,,,,,,
-74.0327901,40.7430669,501,Willow Avenue,,,,,,,
-74.0327927,40.7429001,501,Willow Avenue,,,,,,,
-74.0327981,40.7430404,501,Willow Avenue,,,,,,,
-74.0328062,40.743014,501,Willow Avenue,,,,,,,
-74.0328142,40.7429875,501,Willow Avenue,,,,,,,
-74.0328199,40.7431271,501,Willow Avenue,,,,,,,
-74.0328223,40.7429611,501,Willow Avenue,,,,,,,
-74.0328277,40.7431014,501,Willow Avenue,,,,,,,
-74.0328303,40.7429346,501,Willow Avenue,,,,,,,
-74.0328358,40.7430749,501,Willow Avenue,,,,,,,
-74.0328384,40.7429082,501,Willow Avenue,,,,,,,
-74.0328438,40.7430485,501,Willow Avenue,,,,,,,
-74.0328519,40.743022,501,Willow Avenue,,,,,,,
-74.0328599,40.7429956,501,Willow Avenue,,,,,,,
-74.032868,40.7429691,501,Willow Avenue,,,,,,,
-74.032876,40.7429427,501,Willow Avenue,,,,,,,
-74.0328841,40.7429162,501,Willow Avenue,,,,,,,
-74.327616,40.6501619,501,Willow Avenue,,,,,,,
-74.4846577,40.5401612,501,Willow Avenue,,,,,,,
-74.4849377,40.5405802,502,Willow Avenue,,,,,,,
-74.484297,40.5403042,505,Willow Avenue,,,,,,,
-74.4845745,40.5407204,506,Willow Avenue,,,,,,,
-74.3277933,40.6501377,507,Willow Avenue,,,,,,,
-74.0325474,40.7431455,509,Willow Avenue,,,,,,,
-74.0325531,40.7431264,509,Willow Avenue,,,,,,,
-74.0325789,40.743151,509,Willow Avenue,,,,,,,
-74.0325847,40.7431319,509,Willow Avenue,,,,,,,
-74.0326108,40.7431566,509,Willow Avenue,,,,,,,
-74.0326165,40.7431375,509,Willow Avenue,,,,,,,
-74.032648,40.7431429,509,Willow Avenue,,,,,,,
-74.3986994,40.6461017,509,Willow Avenue,,,,,,,
-74.4839767,40.5404293,509,Willow Avenue,,,,,,,
-74.2771435,40.664358,510,Willow Avenue,,,,,,,
-74.3991334,40.6455976,510,Willow Avenue,,,,,,,
-74.4842544,40.5408457,510,Willow Avenue,,,,,,,
-74.0325322,40.7431961,511,Willow Avenue,,,,,,,
-74.0325637,40.7432016,511,Willow Avenue,,,,,,,
-74.0325956,40.7432071,511,Willow Avenue,,,,,,,
-74.032627,40.7432126,511,Willow Avenue,,,,,,,
-74.2766103,40.6645264,511,Willow Avenue,,,,,,,
-74.1336833,40.8103132,512,Willow Avenue,,,,,,,
-74.3280736,40.6505456,512,Willow Avenue,,,,,,,
-74.0326296,40.7432758,513,Willow Avenue,,,,,,,
-74.1343113,40.8105974,513,Willow Avenue,,,,,,,
-74.2766858,40.664651,513,Willow Avenue,,,,,,,
-74.3279705,40.6501136,513,Willow Avenue,,,,,,,
-74.4836565,40.5405544,513,Willow Avenue,,,,,,,
-74.2772379,40.6645138,514,Willow Avenue,,,,,,,
-74.4839342,40.540971,514,Willow Avenue,,,,,,,
-74.0324976,40.7433256,515,Willow Avenue,,,,,,,
-74.0325043,40.7433032,515,Willow Avenue,,,,,,,
-74.0325389,40.7433328,515,Willow Avenue,,,,,,,
-74.0325456,40.7433104,515,Willow Avenue,,,,,,,
-74.0325821,40.7433403,515,Willow Avenue,,,,,,,
-74.0325888,40.7433179,515,Willow Avenue,,,,,,,
-74.3985577,40.6460127,515,Willow Avenue,,,,,,,
-74.1339366,40.8102746,516,Willow Avenue,,,,,,,
-74.3989929,40.6455114,516,Willow Avenue,,,,,,,
-74.0325942,40.7433922,517,Willow Avenue,,,,,,,
-74.2767425,40.6647445,517,Willow Avenue,,,,,,,
-74.3281478,40.6500895,517,Willow Avenue,,,,,,,
-74.4833358,40.5406798,517,Willow Avenue,,,,,,,
-74.1340091,40.8102034,518,Willow Avenue,,,,,,,
-74.3282509,40.6505214,518,Willow Avenue,,,,,,,
-74.483614,40.5410962,518,Willow Avenue,,,,,,,
-74.032544,40.743462,519,Willow Avenue,,,,,,,
-74.032551,40.743439,519,Willow Avenue,,,,,,,
-74.0325977,40.7434715,519,Willow Avenue,,,,,,,
-74.0326047,40.7434484,519,Willow Avenue,,,,,,,
-74.0326528,40.7434811,519,Willow Avenue,,,,,,,
-74.0326598,40.7434581,519,Willow Avenue,,,,,,,
-74.0327076,40.7434908,519,Willow Avenue,,,,,,,
-74.0327146,40.7434678,519,Willow Avenue,,,,,,,
-74.1344057,40.8104977,519,Willow Avenue,,,,,,,
-74.398418,40.6459261,519,Willow Avenue,,,,,,,
-74.2773228,40.664654,520,Willow Avenue,,,,,,,
-74.3988539,40.6454269,520,Willow Avenue,,,,,,,
-74.0325554,40.7435196,521,Willow Avenue,,,,,,,
-74.276799,40.664838,521,Willow Avenue,,,,,,,
-74.4830152,40.5408051,521,Willow Avenue,,,,,,,
-74.134076,40.8101409,522,Willow Avenue,,,,,,,
-74.3284104,40.6504998,522,Willow Avenue,,,,,,,
-74.4832938,40.5412215,522,Willow Avenue,,,,,,,
-74.0325358,40.7435838,523,Willow Avenue,,,,,,,
-74.1345188,40.8103845,523,Willow Avenue,,,,,,,
-74.328325,40.6500654,523,Willow Avenue,,,,,,,
-74.3982771,40.6458403,523,Willow Avenue,,,,,,,
-74.2773983,40.6647786,524,Willow Avenue,,,,,,,
-74.3987142,40.6453419,524,Willow Avenue,,,,,,,
-74.0325139,40.7436553,525,Willow Avenue,,,,,,,
-74.2768746,40.6649626,525,Willow Avenue,,,,,,,
-74.4826949,40.5409302,525,Willow Avenue,,,,,,,
-74.3285522,40.6504805,526,Willow Avenue,,,,,,,
-74.4829729,40.5413475,526,Willow Avenue,,,,,,,
-74.0324891,40.7437367,527,Willow Avenue,,,,,,,
-74.1346296,40.8102713,527,Willow Avenue,,,,,,,
-74.3285023,40.6500412,527,Willow Avenue,,,,,,,
-74.3981365,40.6457534,527,Willow Avenue,,,,,,,
-74.2774738,40.6649033,528,Willow Avenue,,,,,,,
-74.3985758,40.6452564,528,Willow Avenue,,,,,,,
-74.134727,40.8101705,529,Willow Avenue,,,,,,,
-74.2769501,40.6650872,529,Willow Avenue,,,,,,,
-74.3286618,40.6500195,529,Willow Avenue,,,,,,,
-74.4823324,40.5410696,529,Willow Avenue,,,,,,,
-74.2775493,40.6650279,530,Willow Avenue,,,,,,,
-74.328694,40.6504611,530,Willow Avenue,,,,,,,
-74.3984358,40.645172,530,Willow Avenue,,,,,,,
-74.482614,40.5414895,530,Willow Avenue,,,,,,,
-74.1348224,40.8100748,531,Willow Avenue,,,,,,,
-74.3287859,40.6500027,531,Willow Avenue,,,,,,,
-74.3979948,40.6456673,531,Willow Avenue,,,,,,,
-74.2770444,40.665243,533,Willow Avenue,,,,,,,
-74.2776059,40.6651213,534,Willow Avenue,,,,,,,
-74.3288359,40.6504419,534,Willow Avenue,,,,,,,
-74.1348788,40.8098411,535,Willow Avenue,,,,,,,
-74.3978535,40.6455812,535,Willow Avenue,,,,,,,
-74.3289776,40.6504225,536,Willow Avenue,,,,,,,
-74.3982953,40.6450869,536,Willow Avenue,,,,,,,
-74.3289277,40.6499833,537,Willow Avenue,,,,,,,
-74.3977135,40.6454942,539,Willow Avenue,,,,,,,
-74.3981557,40.6450042,540,Willow Avenue,,,,,,,
-74.3291372,40.6504008,542,Willow Avenue,,,,,,,
-74.3291049,40.6499592,543,Willow Avenue,,,,,,,
-74.3975726,40.6454083,543,Willow Avenue,,,,,,,
-74.3979688,40.6449658,544,Willow Avenue,,,,,,,
-74.3974323,40.6453215,545,Willow Avenue,,,,,,,
-74.3293144,40.6503767,546,Willow Avenue,,,,,,,
-74.3292822,40.6499351,547,Willow Avenue,,,,,,,
-74.3978281,40.6448791,548,Willow Avenue,,,,,,,
-74.3977576,40.6447532,550,Willow Avenue,,,,,,,
-74.3972953,40.6452302,551,Willow Avenue,,,,,,,
-74.3295094,40.6503502,552,Willow Avenue,,,,,,,
-74.0977923,40.918976,553,Willow Avenue,,,,,,,
-74.0973996,40.919235,554,Willow Avenue,,,,,,,
-74.3975113,40.644665,554,Willow Avenue,,,,,,,
-74.1342313,40.8099299,556,Willow Avenue,,,,,,,
-74.0979348,40.9191718,557,Willow Avenue,,,,,,,
-74.3295481,40.6498989,557,Willow Avenue,,,,,,,
-74.0974542,40.9193732,558,Willow Avenue,,,,,,,
-74.329731,40.65032,558,Willow Avenue,,,,,,,
-74.1343595,40.8097974,560,Willow Avenue,,,,,,,
-74.3299791,40.6502862,560,Willow Avenue,,,,,,,
-74.3973662,40.6445801,560,Willow Avenue,,,,,,,
-74.0980059,40.9193301,561,Willow Avenue,,,,,,,
-74.3297963,40.6498651,561,Willow Avenue,,,,,,,
-74.0975184,40.9195143,562,Willow Avenue,,,,,,,
-74.3972243,40.6444984,564,Willow Avenue,,,,,,,
-74.329938,40.6498459,565,Willow Avenue,,,,,,,
-74.0980791,40.9194877,567,Willow Avenue,,,,,,,
-74.0975858,40.9196599,568,Willow Avenue,,,,,,,
-74.3970813,40.6444153,568,Willow Avenue,,,,,,,
-74.0981505,40.9196448,571,Willow Avenue,,,,,,,
-74.0976493,40.9197982,572,Willow Avenue,,,,,,,
-74.3969258,40.6443393,572,Willow Avenue,,,,,,,
-74.0982189,40.9198,575,Willow Avenue,,,,,,,
-74.0977094,40.9199292,578,Willow Avenue,,,,,,,
-74.0982861,40.9199428,581,Willow Avenue,,,,,,,
-74.0977692,40.9200614,582,Willow Avenue,,,,,,,
-74.0983568,40.9200923,585,Willow Avenue,,,,,,,
-74.0978277,40.9201905,586,Willow Avenue,,,,,,,
-74.098418,40.920237,589,Willow Avenue,,,,,,,
-74.0978894,40.9203211,590,Willow Avenue,,,,,,,
-74.097951,40.9204523,594,Willow Avenue,,,,,,,
-74.0984832,40.920373,595,Willow Avenue,,,,,,,
-74.0980658,40.9205399,598,Willow Avenue,,,,,,,
-74.0985492,40.920521,599,Willow Avenue,,,,,,,
-74.032896,40.7442641,600,Willow Avenue,,,,,,,
-74.0323557,40.7441683,601,Willow Avenue,,,,,,,
-74.4818001,40.5412704,601,Willow Avenue,,,,,,,
-74.0327727,40.7443145,602,Willow Avenue,,,,,,,
-74.0328177,40.7443224,602,Willow Avenue,,,,,,,
-74.0328609,40.74433,602,Willow Avenue,,,,,,,
-74.0329059,40.744338,602,Willow Avenue,,,,,,,
-74.4820863,40.541697,602,Willow Avenue,,,,,,,
-74.0323349,40.744239,603,Willow Avenue,,,,,,,
-74.0986143,40.9206649,603,Willow Avenue,,,,,,,
-74.2773804,40.6657976,603,Willow Avenue,,,,,,,
-74.330328,40.6497928,603,Willow Avenue,,,,,,,
-74.0328549,40.7443958,604,Willow Avenue,,,,,,,
-74.3304311,40.6502247,604,Willow Avenue,,,,,,,
-74.0323481,40.7443532,605,Willow Avenue,,,,,,,
-74.0323609,40.7443112,605,Willow Avenue,,,,,,,
-74.0323945,40.7443613,605,Willow Avenue,,,,,,,
-74.0324072,40.7443193,605,Willow Avenue,,,,,,,
-74.0324405,40.7443693,605,Willow Avenue,,,,,,,
-74.0324531,40.7443273,605,Willow Avenue,,,,,,,
-74.481486,40.5413948,605,Willow Avenue,,,,,,,
-74.032878,40.7444691,606,Willow Avenue,,,,,,,
-74.4817643,40.5418197,606,Willow Avenue,,,,,,,
-74.2774559,40.6659223,607,Willow Avenue,,,,,,,
-74.3306084,40.6502006,608,Willow Avenue,,,,,,,
-74.0322843,40.744405,609,Willow Avenue,,,,,,,
-74.2775125,40.6660157,609,Willow Avenue,,,,,,,
-74.3305283,40.6497655,609,Willow Avenue,,,,,,,
-74.4811722,40.5415174,609,Willow Avenue,,,,,,,
-74.2780457,40.6658474,610,Willow Avenue,,,,,,,
-74.4814439,40.5419448,610,Willow Avenue,,,,,,,
-74.0322672,40.7444587,611,Willow Avenue,,,,,,,
-74.0323135,40.7444669,611,Willow Avenue,,,,,,,
-74.0323598,40.744475,611,Willow Avenue,,,,,,,
-74.0324062,40.7444832,611,Willow Avenue,,,,,,,
-74.277588,40.6661403,611,Willow Avenue,,,,,,,
-74.2781023,40.6659408,612,Willow Avenue,,,,,,,
-74.0322482,40.7445234,613,Willow Avenue,,,,,,,
-74.3307162,40.6497399,613,Willow Avenue,,,,,,,
-74.4808365,40.5416384,613,Willow Avenue,,,,,,,
-74.2781684,40.6660499,614,Willow Avenue,,,,,,,
-74.3307856,40.6501765,614,Willow Avenue,,,,,,,
-74.4811242,40.5420804,614,Willow Avenue,,,,,,,
-74.0322259,40.7445965,615,Willow Avenue,,,,,,,
-74.0322053,40.7446644,617,Willow Avenue,,,,,,,
-74.3309041,40.6497143,617,Willow Avenue,,,,,,,
-74.4803975,40.5417791,617,Willow Avenue,,,,,,,
-74.3309806,40.65015,618,Willow Avenue,,,,,,,
-74.4807171,40.5422728,618,Willow Avenue,,,,,,,
-74.2777013,40.6663273,619,Willow Avenue,,,,,,,
-74.2782628,40.6662057,620,Willow Avenue,,,,,,,
-74.3311579,40.6501258,622,Willow Avenue,,,,,,,
-74.4803802,40.5421038,622,Willow Avenue,,,,,,,
-74.032138,40.7448854,623,Willow Avenue,,,,,,,
-74.331092,40.6496888,623,Willow Avenue,,,,,,,
-74.0321019,40.7449707,625,Willow Avenue,,,,,,,
-74.0321104,40.7449429,625,Willow Avenue,,,,,,,
-74.0321394,40.7449773,625,Willow Avenue,,,,,,,
-74.0321479,40.7449495,625,Willow Avenue,,,,,,,
-74.0321781,40.7449842,625,Willow Avenue,,,,,,,
-74.0321866,40.7449563,625,Willow Avenue,,,,,,,
-74.0322168,40.744991,625,Willow Avenue,,,,,,,
-74.0322252,40.7449632,625,Willow Avenue,,,,,,,
-74.0322555,40.7449978,625,Willow Avenue,,,,,,,
-74.0322639,40.74497,625,Willow Avenue,,,,,,,
-74.2778145,40.6665142,625,Willow Avenue,,,,,,,
-74.278376,40.6663926,626,Willow Avenue,,,,,,,
-74.3313351,40.6501017,626,Willow Avenue,,,,,,,
-74.0320779,40.7450495,627,Willow Avenue,,,,,,,
-74.0320866,40.7450207,627,Willow Avenue,,,,,,,
-74.0321154,40.7450561,627,Willow Avenue,,,,,,,
-74.0321242,40.7450273,627,Willow Avenue,,,,,,,
-74.0321541,40.7450629,627,Willow Avenue,,,,,,,
-74.0321629,40.7450341,627,Willow Avenue,,,,,,,
-74.0321928,40.7450697,627,Willow Avenue,,,,,,,
-74.0322016,40.7450409,627,Willow Avenue,,,,,,,
-74.0322315,40.7450765,627,Willow Avenue,,,,,,,
-74.0322403,40.7450478,627,Willow Avenue,,,,,,,
-74.0320743,40.7450947,629,Willow Avenue,,,,,,,
-74.3312799,40.6496632,629,Willow Avenue,,,,,,,
-74.2784704,40.6665484,630,Willow Avenue,,,,,,,
-74.3315124,40.6500775,630,Willow Avenue,,,,,,,
-74.0321205,40.7451682,631,Willow Avenue,,,,,,,
-74.2779164,40.6666825,631,Willow Avenue,,,,,,,
-74.3314713,40.6496371,633,Willow Avenue,,,,,,,
-74.2785525,40.6666775,634,Willow Avenue,,,,,,,
-74.3316719,40.6500559,636,Willow Avenue,,,,,,,
-74.2780094,40.66683,637,Willow Avenue,,,,,,,
-74.3318492,40.6500317,640,Willow Avenue,,,,,,,
-74.3320265,40.6500076,646,Willow Avenue,,,,,,,
-74.3326114,40.6499279,658,Willow Avenue,,,,,,,
-74.3316397,40.6496142,661,Willow Avenue,,,,,,,
-74.3327886,40.6499038,662,Willow Avenue,,,,,,,
-74.3317868,40.6495942,663,Willow Avenue,,,,,,,
-74.3319357,40.6495739,665,Willow Avenue,,,,,,,
-74.3330125,40.6499061,666,Willow Avenue,,,,,,,
-74.3321076,40.6495505,667,Willow Avenue,,,,,,,
-74.333257,40.6497787,674,Willow Avenue,,,,,,,
-74.3323132,40.6495225,675,Willow Avenue,,,,,,,
-74.3324905,40.6494984,677,Willow Avenue,,,,,,,
-74.3326323,40.649479,679,Willow Avenue,,,,,,,
-74.3327741,40.6494597,681,Willow Avenue,,,,,,,
-74.3329159,40.6494404,683,Willow Avenue,,,,,,,
-74.3330931,40.6494163,685,Willow Avenue,,,,,,,
-74.3333059,40.6493874,687,Willow Avenue,,,,,,,
-74.3334742,40.6493645,691,Willow Avenue,,,,,,,
-74.3336922,40.6493036,693,Willow Avenue,,,,,,,
-74.0325454,40.7455452,700,Willow Avenue,,,,,,,
-74.4551734,40.468981,700,Willow Avenue,,,,,,,
-74.0325272,40.7456071,702,Willow Avenue,,,,,,,
-74.9284905,38.9418391,703,Willow Avenue,,,,,,,
-74.0325064,40.7456754,704,Willow Avenue,,,,,,,
-74.0323555,40.7457409,706,Willow Avenue,,,,,,,
-74.0323639,40.7457133,706,Willow Avenue,,,,,,,
-74.0324295,40.7457539,706,Willow Avenue,,,,,,,
-74.032438,40.7457263,706,Willow Avenue,,,,,,,
-74.0325019,40.7457667,706,Willow Avenue,,,,,,,
-74.0325103,40.745739,706,Willow Avenue,,,,,,,
-74.0325745,40.7457795,706,Willow Avenue,,,,,,,
-74.0325829,40.7457518,706,Willow Avenue,,,,,,,
-74.0319151,40.7456204,707,Willow Avenue,,,,,,,
-74.0323348,40.7457832,708,Willow Avenue,,,,,,,
-74.0323759,40.7458639,708,Willow Avenue,,,,,,,
-74.0323828,40.7458411,708,Willow Avenue,,,,,,,
-74.03239,40.7458175,708,Willow Avenue,,,,,,,
-74.0323972,40.7457941,708,Willow Avenue,,,,,,,
-74.0325094,40.7458634,708,Willow Avenue,,,,,,,
-74.0325657,40.7458973,708,Willow Avenue,,,,,,,
-74.0325799,40.745851,708,Willow Avenue,,,,,,,
-74.0318882,40.7457086,709,Willow Avenue,,,,,,,
-74.455368,40.4687924,710,Willow Avenue,,,,,,,
-74.0318508,40.7458769,711,Willow Avenue,,,,,,,
-74.03188,40.7457805,711,Willow Avenue,,,,,,,
-74.0318907,40.7459354,711,Willow Avenue,,,,,,,
-74.0319056,40.7458865,711,Willow Avenue,,,,,,,
-74.0319898,40.7457999,711,Willow Avenue,,,,,,,
-74.9279465,38.9417746,711,Willow Avenue,,,,,,,
-74.0322797,40.7459642,712,Willow Avenue,,,,,,,
-74.0322874,40.745939,712,Willow Avenue,,,,,,,
-74.032342,40.7459753,712,Willow Avenue,,,,,,,
-74.032364,40.7459028,712,Willow Avenue,,,,,,,
-74.0324129,40.7459612,712,Willow Avenue,,,,,,,
-74.0324205,40.7459365,712,Willow Avenue,,,,,,,
-74.0317276,40.7460093,715,Willow Avenue,,,,,,,
-74.0317338,40.745989,715,Willow Avenue,,,,,,,
-74.03174,40.7459686,715,Willow Avenue,,,,,,,
-74.031818,40.7460252,715,Willow Avenue,,,,,,,
-74.0318242,40.746005,715,Willow Avenue,,,,,,,
-74.0318305,40.7459846,715,Willow Avenue,,,,,,,
-74.0319102,40.7460414,715,Willow Avenue,,,,,,,
-74.0319164,40.7460212,715,Willow Avenue,,,,,,,
-74.0319225,40.7460008,715,Willow Avenue,,,,,,,
-74.455711,40.4689269,715,Willow Avenue,,,,,,,
-74.4559594,40.4688474,715,Willow Avenue,,,,,,,
-74.0316763,40.7460695,717,Willow Avenue,,,,,,,
-74.0317039,40.7460744,717,Willow Avenue,,,,,,,
-74.0317313,40.7460792,717,Willow Avenue,,,,,,,
-74.0317587,40.746084,717,Willow Avenue,,,,,,,
-74.0317862,40.7460888,717,Willow Avenue,,,,,,,
-74.0318136,40.7460937,717,Willow Avenue,,,,,,,
-74.031841,40.7460985,717,Willow Avenue,,,,,,,
-74.0318685,40.7461033,717,Willow Avenue,,,,,,,
-74.0318959,40.7461082,717,Willow Avenue,,,,,,,
-74.0319233,40.746113,717,Willow Avenue,,,,,,,
-74.0317461,40.746174,719,Willow Avenue,,,,,,,
-74.0322475,40.7460222,720,Willow Avenue,,,,,,,
-74.032281,40.746028,720,Willow Avenue,,,,,,,
-74.0323122,40.7460335,720,Willow Avenue,,,,,,,
-74.0323433,40.7460391,720,Willow Avenue,,,,,,,
-74.0323773,40.746045,720,Willow Avenue,,,,,,,
-74.4555349,40.4686306,720,Willow Avenue,,,,,,,
-74.0317193,40.7462616,721,Willow Avenue,,,,,,,
-74.0323695,40.7461249,722,Willow Avenue,,,,,,,
-74.0316856,40.7463694,723,Willow Avenue,,,,,,,
-74.0316922,40.7463479,723,Willow Avenue,,,,,,,
-74.0316989,40.7463258,723,Willow Avenue,,,,,,,
-74.031749,40.7463805,723,Willow Avenue,,,,,,,
-74.0317556,40.746359,723,Willow Avenue,,,,,,,
-74.0317622,40.746337,723,Willow Avenue,,,,,,,
-74.0318144,40.746392,723,Willow Avenue,,,,,,,
-74.0318209,40.7463705,723,Willow Avenue,,,,,,,
-74.0318276,40.7463485,723,Willow Avenue,,,,,,,
-74.0323517,40.746183,724,Willow Avenue,,,,,,,
-74.032338,40.7462283,726,Willow Avenue,,,,,,,
-74.0321835,40.7462901,728,Willow Avenue,,,,,,,
-74.0321933,40.7462574,728,Willow Avenue,,,,,,,
-74.0322413,40.7463002,728,Willow Avenue,,,,,,,
-74.0322512,40.7462676,728,Willow Avenue,,,,,,,
-74.0322981,40.7463101,728,Willow Avenue,,,,,,,
-74.032308,40.7462775,728,Willow Avenue,,,,,,,
-74.0323575,40.7463205,728,Willow Avenue,,,,,,,
-74.0323674,40.7462879,728,Willow Avenue,,,,,,,
-74.9287735,38.9413383,732,Willow Avenue,,,,,,,
-74.032252,40.7465108,734,Willow Avenue,,,,,,,
-74.456091,40.4680915,740,Willow Avenue,,,,,,,
-74.4565118,40.4683437,741,Willow Avenue,,,,,,,
-74.4562578,40.4679298,746,Willow Avenue,,,,,,,
-74.456369,40.467822,750,Willow Avenue,,,,,,,
-74.4565622,40.4676498,756,Willow Avenue,,,,,,,
-74.0317093,40.7467401,801,Willow Avenue,,,,,,,
-74.0315518,40.7468058,803,Willow Avenue,,,,,,,
-74.0315571,40.7467885,803,Willow Avenue,,,,,,,
-74.0315621,40.7467718,803,Willow Avenue,,,,,,,
-74.0316151,40.746817,803,Willow Avenue,,,,,,,
-74.0316204,40.7467996,803,Willow Avenue,,,,,,,
-74.0316255,40.746783,803,Willow Avenue,,,,,,,
-74.0316822,40.7468288,803,Willow Avenue,,,,,,,
-74.0316875,40.7468115,803,Willow Avenue,,,,,,,
-74.0316926,40.7467948,803,Willow Avenue,,,,,,,
-74.0315183,40.7468786,805,Willow Avenue,,,,,,,
-74.0315274,40.7468491,805,Willow Avenue,,,,,,,
-74.0315568,40.7468854,805,Willow Avenue,,,,,,,
-74.0315658,40.7468558,805,Willow Avenue,,,,,,,
-74.0315957,40.7468923,805,Willow Avenue,,,,,,,
-74.0316047,40.7468627,805,Willow Avenue,,,,,,,
-74.0316346,40.7468991,805,Willow Avenue,,,,,,,
-74.0316436,40.7468696,805,Willow Avenue,,,,,,,
-74.0316735,40.746906,805,Willow Avenue,,,,,,,
-74.0316825,40.7468765,805,Willow Avenue,,,,,,,
-74.0315112,40.7469438,807,Willow Avenue,,,,,,,
-74.031472,40.7470305,809,Willow Avenue,,,,,,,
-74.0314806,40.7470024,809,Willow Avenue,,,,,,,
-74.0315105,40.7470373,809,Willow Avenue,,,,,,,
-74.031519,40.7470092,809,Willow Avenue,,,,,,,
-74.0315494,40.7470441,809,Willow Avenue,,,,,,,
-74.031558,40.747016,809,Willow Avenue,,,,,,,
-74.0315883,40.747051,809,Willow Avenue,,,,,,,
-74.0315968,40.7470229,809,Willow Avenue,,,,,,,
-74.0316271,40.7470579,809,Willow Avenue,,,,,,,
-74.0316357,40.7470298,809,Willow Avenue,,,,,,,
-74.0314487,40.7471074,811,Willow Avenue,,,,,,,
-74.0314572,40.7470793,811,Willow Avenue,,,,,,,
-74.0314871,40.7471141,811,Willow Avenue,,,,,,,
-74.0314957,40.747086,811,Willow Avenue,,,,,,,
-74.031526,40.747121,811,Willow Avenue,,,,,,,
-74.0315345,40.7470929,811,Willow Avenue,,,,,,,
-74.0315649,40.7471279,811,Willow Avenue,,,,,,,
-74.0315735,40.7470998,811,Willow Avenue,,,,,,,
-74.0316037,40.7471347,811,Willow Avenue,,,,,,,
-74.0316123,40.7471066,811,Willow Avenue,,,,,,,
-74.0314248,40.7471857,813,Willow Avenue,,,,,,,
-74.0314334,40.7471573,813,Willow Avenue,,,,,,,
-74.0314632,40.7471924,813,Willow Avenue,,,,,,,
-74.0314718,40.7471641,813,Willow Avenue,,,,,,,
-74.0315021,40.7471994,813,Willow Avenue,,,,,,,
-74.0315107,40.7471709,813,Willow Avenue,,,,,,,
-74.031541,40.7472062,813,Willow Avenue,,,,,,,
-74.0315497,40.7471778,813,Willow Avenue,,,,,,,
-74.0315798,40.747213,813,Willow Avenue,,,,,,,
-74.0315884,40.7471846,813,Willow Avenue,,,,,,,
-74.0318665,40.7473388,814,Willow Avenue,,,,,,,
-74.0318729,40.7473178,814,Willow Avenue,,,,,,,
-74.0318798,40.7472955,814,Willow Avenue,,,,,,,
-74.0319336,40.7473508,814,Willow Avenue,,,,,,,
-74.0319401,40.7473296,814,Willow Avenue,,,,,,,
-74.0319471,40.7473073,814,Willow Avenue,,,,,,,
-74.0320004,40.7473627,814,Willow Avenue,,,,,,,
-74.0320069,40.7473414,814,Willow Avenue,,,,,,,
-74.0320138,40.7473191,814,Willow Avenue,,,,,,,
-74.032068,40.7473748,814,Willow Avenue,,,,,,,
-74.0320744,40.7473533,814,Willow Avenue,,,,,,,
-74.0320812,40.747331,814,Willow Avenue,,,,,,,
-74.0314108,40.7472688,815,Willow Avenue,,,,,,,
-74.0314163,40.7472507,815,Willow Avenue,,,,,,,
-74.0314218,40.7472325,815,Willow Avenue,,,,,,,
-74.0314741,40.74728,815,Willow Avenue,,,,,,,
-74.0314796,40.7472619,815,Willow Avenue,,,,,,,
-74.0314852,40.7472437,815,Willow Avenue,,,,,,,
-74.0315411,40.7472918,815,Willow Avenue,,,,,,,
-74.0315466,40.7472737,815,Willow Avenue,,,,,,,
-74.0315522,40.7472555,815,Willow Avenue,,,,,,,
-74.0318558,40.7474117,816,Willow Avenue,,,,,,,
-74.0318612,40.7473953,816,Willow Avenue,,,,,,,
-74.0318654,40.7473797,816,Willow Avenue,,,,,,,
-74.0319484,40.7474278,816,Willow Avenue,,,,,,,
-74.031954,40.7474115,816,Willow Avenue,,,,,,,
-74.0319582,40.7473958,816,Willow Avenue,,,,,,,
-74.0320384,40.7474434,816,Willow Avenue,,,,,,,
-74.0320437,40.747427,816,Willow Avenue,,,,,,,
-74.0320481,40.7474114,816,Willow Avenue,,,,,,,
-74.0318333,40.7474878,818,Willow Avenue,,,,,,,
-74.031839,40.7474692,818,Willow Avenue,,,,,,,
-74.0318441,40.747451,818,Willow Avenue,,,,,,,
-74.0319255,40.7475041,818,Willow Avenue,,,,,,,
-74.0319314,40.7474852,818,Willow Avenue,,,,,,,
-74.0320152,40.7475199,818,Willow Avenue,,,,,,,
-74.0320212,40.7475008,818,Willow Avenue,,,,,,,
-74.0320264,40.7474826,818,Willow Avenue,,,,,,,
-74.031398,40.7473148,825,Willow Avenue,,,,,,,
-74.031381,40.7473706,827,Willow Avenue,,,,,,,
-74.031886,40.7477123,828,Willow Avenue,,,,,,,
-74.0313639,40.7474268,829,Willow Avenue,,,,,,,
-74.0318716,40.7477592,830,Willow Avenue,,,,,,,
-74.0313465,40.7474837,831,Willow Avenue,,,,,,,
-74.0312608,40.7477243,839,Willow Avenue,,,,,,,
-74.0312687,40.747698,839,Willow Avenue,,,,,,,
-74.031299,40.7477311,839,Willow Avenue,,,,,,,
-74.031307,40.7477048,839,Willow Avenue,,,,,,,
-74.0313379,40.7477379,839,Willow Avenue,,,,,,,
-74.0313459,40.7477116,839,Willow Avenue,,,,,,,
-74.0313768,40.7477448,839,Willow Avenue,,,,,,,
-74.0313848,40.7477185,839,Willow Avenue,,,,,,,
-74.0314155,40.7477516,839,Willow Avenue,,,,,,,
-74.0314235,40.7477253,839,Willow Avenue,,,,,,,
-74.0312481,40.7478029,841,Willow Avenue,,,,,,,
-74.0312532,40.747786,841,Willow Avenue,,,,,,,
-74.0312584,40.7477691,841,Willow Avenue,,,,,,,
-74.0313114,40.747814,841,Willow Avenue,,,,,,,
-74.0313165,40.7477972,841,Willow Avenue,,,,,,,
-74.0313217,40.7477803,841,Willow Avenue,,,,,,,
-74.0313782,40.7478259,841,Willow Avenue,,,,,,,
-74.0313834,40.747809,841,Willow Avenue,,,,,,,
-74.0313886,40.7477921,841,Willow Avenue,,,,,,,
-74.0317109,40.7480807,900,Willow Avenue,,,,,,,
-74.0312011,40.7479958,901,Willow Avenue,,,,,,,
-74.0312067,40.7479773,901,Willow Avenue,,,,,,,
-74.0312665,40.7480073,901,Willow Avenue,,,,,,,
-74.0313273,40.748018,901,Willow Avenue,,,,,,,
-74.0311803,40.7480371,903,Willow Avenue,,,,,,,
-74.0312253,40.748045,903,Willow Avenue,,,,,,,
-74.0312712,40.748053,903,Willow Avenue,,,,,,,
-74.0313171,40.7480611,903,Willow Avenue,,,,,,,
-74.0312305,40.7480918,905,Willow Avenue,,,,,,,
-74.0317177,40.7482705,906,Willow Avenue,,,,,,,
-74.0311607,40.748128,907,Willow Avenue,,,,,,,
-74.0312261,40.7481396,907,Willow Avenue,,,,,,,
-74.031287,40.7481502,907,Willow Avenue,,,,,,,
-74.0315712,40.7483154,908,Willow Avenue,,,,,,,
-74.0316398,40.7483274,908,Willow Avenue,,,,,,,
-74.0317081,40.7483395,908,Willow Avenue,,,,,,,
-74.0317771,40.7483516,908,Willow Avenue,,,,,,,
-74.031146,40.7481763,909,Willow Avenue,,,,,,,
-74.0312113,40.7481878,909,Willow Avenue,,,,,,,
-74.0312723,40.7481985,909,Willow Avenue,,,,,,,
-74.0315541,40.7483719,910,Willow Avenue,,,,,,,
-74.0316226,40.748384,910,Willow Avenue,,,,,,,
-74.0316909,40.748396,910,Willow Avenue,,,,,,,
-74.03176,40.7484081,910,Willow Avenue,,,,,,,
-74.0363069,40.9418639,910,Willow Avenue,,,,,,,
-74.031132,40.7482221,911,Willow Avenue,,,,,,,
-74.0311974,40.7482337,911,Willow Avenue,,,,,,,
-74.0312584,40.7482444,911,Willow Avenue,,,,,,,
-74.031664,40.7484472,912,Willow Avenue,,,,,,,
-74.0316474,40.7485015,914,Willow Avenue,,,,,,,
-74.0368335,40.9419695,915,Willow Avenue,,,,,,,
-74.0316305,40.7485572,916,Willow Avenue,,,,,,,
-74.03107,40.7483816,917,Willow Avenue,,,,,,,
-74.0310775,40.748357,917,Willow Avenue,,,,,,,
-74.0311056,40.7483879,917,Willow Avenue,,,,,,,
-74.0311132,40.7483633,917,Willow Avenue,,,,,,,
-74.0311422,40.7483943,917,Willow Avenue,,,,,,,
-74.0311497,40.7483698,917,Willow Avenue,,,,,,,
-74.0311783,40.7484007,917,Willow Avenue,,,,,,,
-74.0311858,40.7483761,917,Willow Avenue,,,,,,,
-74.0312154,40.7484072,917,Willow Avenue,,,,,,,
-74.0312229,40.7483826,917,Willow Avenue,,,,,,,
-74.0310537,40.748441,919,Willow Avenue,,,,,,,
-74.0367278,40.9421948,919,Willow Avenue,,,,,,,
-74.0362033,40.9420891,920,Willow Avenue,,,,,,,
-74.031038,40.7485303,921,Willow Avenue,,,,,,,
-74.0310428,40.7485144,921,Willow Avenue,,,,,,,
-74.0310479,40.7484977,921,Willow Avenue,,,,,,,
-74.0311034,40.7485418,921,Willow Avenue,,,,,,,
-74.0311081,40.7485259,921,Willow Avenue,,,,,,,
-74.0311133,40.7485093,921,Willow Avenue,,,,,,,
-74.0311645,40.7485525,921,Willow Avenue,,,,,,,
-74.0311693,40.7485367,921,Willow Avenue,,,,,,,
-74.0311744,40.74852,921,Willow Avenue,,,,,,,
-74.0366725,40.9423221,921,Willow Avenue,,,,,,,
-74.031584,40.7487094,922,Willow Avenue,,,,,,,
-74.0310109,40.7485809,923,Willow Avenue,,,,,,,
-74.0314523,40.7487226,924,Willow Avenue,,,,,,,
-74.031536,40.7487373,924,Willow Avenue,,,,,,,
-74.0316201,40.7487522,924,Willow Avenue,,,,,,,
-74.03099,40.7486494,925,Willow Avenue,,,,,,,
-74.0314645,40.7487593,926,Willow Avenue,,,,,,,
-74.0315882,40.7487811,926,Willow Avenue,,,,,,,
-74.0361182,40.94228,926,Willow Avenue,,,,,,,
-74.030969,40.7487182,927,Willow Avenue,,,,,,,
-74.0314538,40.7487947,928,Willow Avenue,,,,,,,
-74.0315774,40.7488165,928,Willow Avenue,,,,,,,
-74.0309455,40.748795,929,Willow Avenue,,,,,,,
-74.0366122,40.9424533,929,Willow Avenue,,,,,,,
-74.0315417,40.7488483,930,Willow Avenue,,,,,,,
-74.0360123,40.9425058,930,Willow Avenue,,,,,,,
-74.0309183,40.7488999,931,Willow Avenue,,,,,,,
-74.0309247,40.7488789,931,Willow Avenue,,,,,,,
-74.030964,40.748908,931,Willow Avenue,,,,,,,
-74.0309704,40.7488869,931,Willow Avenue,,,,,,,
-74.0309766,40.7488665,931,Willow Avenue,,,,,,,
-74.0310088,40.7489159,931,Willow Avenue,,,,,,,
-74.0310152,40.7488948,931,Willow Avenue,,,,,,,
-74.0310215,40.7488744,931,Willow Avenue,,,,,,,
-74.0310546,40.7489239,931,Willow Avenue,,,,,,,
-74.031061,40.7489029,931,Willow Avenue,,,,,,,
-74.0310672,40.7488824,931,Willow Avenue,,,,,,,
-74.031531,40.7488838,932,Willow Avenue,,,,,,,
-74.0308919,40.748987,933,Willow Avenue,,,,,,,
-74.0308985,40.7489653,933,Willow Avenue,,,,,,,
-74.0309375,40.748995,933,Willow Avenue,,,,,,,
-74.030944,40.7489734,933,Willow Avenue,,,,,,,
-74.030951,40.7489504,933,Willow Avenue,,,,,,,
-74.0309823,40.7490028,933,Willow Avenue,,,,,,,
-74.0309889,40.7489813,933,Willow Avenue,,,,,,,
-74.0309958,40.7489584,933,Willow Avenue,,,,,,,
-74.0310281,40.7490109,933,Willow Avenue,,,,,,,
-74.0310347,40.7489893,933,Willow Avenue,,,,,,,
-74.0310417,40.7489664,933,Willow Avenue,,,,,,,
-74.0313868,40.7489069,934,Willow Avenue,,,,,,,
-74.0314483,40.7489177,934,Willow Avenue,,,,,,,
-74.0315107,40.7489288,934,Willow Avenue,,,,,,,
-74.0315728,40.7489397,934,Willow Avenue,,,,,,,
-74.0308689,40.7490461,935,Willow Avenue,,,,,,,
-74.0365375,40.9426178,935,Willow Avenue,,,,,,,
-74.031501,40.7489821,936,Willow Avenue,,,,,,,
-74.0364212,40.9428791,937,Willow Avenue,,,,,,,
-74.0314854,40.7490334,938,Willow Avenue,,,,,,,
-74.0358939,40.9427681,938,Willow Avenue,,,,,,,
-74.0314698,40.7490844,940,Willow Avenue,,,,,,,
-74.0314504,40.7491483,942,Willow Avenue,,,,,,,
-74.0313879,40.7493565,1000,Willow Avenue,,,,,,,
-74.0313695,40.7494176,1002,Willow Avenue,,,,,,,
-74.0312138,40.7494493,1004,Willow Avenue,,,,,,,
-74.0312583,40.7494572,1004,Willow Avenue,,,,,,,
-74.0313022,40.7494649,1004,Willow Avenue,,,,,,,
-74.0313459,40.7494725,1004,Willow Avenue,,,,,,,
-74.0313354,40.7495293,1006,Willow Avenue,,,,,,,
-74.0307351,40.7494406,1007,Willow Avenue,,,,,,,
-74.0307406,40.7494224,1007,Willow Avenue,,,,,,,
-74.0307465,40.7494028,1007,Willow Avenue,,,,,,,
-74.0308058,40.7494529,1007,Willow Avenue,,,,,,,
-74.0308172,40.7494151,1007,Willow Avenue,,,,,,,
-74.0308764,40.7494652,1007,Willow Avenue,,,,,,,
-74.0308819,40.7494471,1007,Willow Avenue,,,,,,,
-74.0308878,40.7494275,1007,Willow Avenue,,,,,,,
-74.0311876,40.7495592,1008,Willow Avenue,,,,,,,
-74.0312452,40.7495693,1008,Willow Avenue,,,,,,,
-74.0313035,40.7495795,1008,Willow Avenue,,,,,,,
-74.0307126,40.749515,1009,Willow Avenue,,,,,,,
-74.0307176,40.7494983,1009,Willow Avenue,,,,,,,
-74.0307231,40.7494804,1009,Willow Avenue,,,,,,,
-74.0307833,40.7495273,1009,Willow Avenue,,,,,,,
-74.0307884,40.7495107,1009,Willow Avenue,,,,,,,
-74.0307938,40.7494927,1009,Willow Avenue,,,,,,,
-74.0308539,40.7495397,1009,Willow Avenue,,,,,,,
-74.0308589,40.749523,1009,Willow Avenue,,,,,,,
-74.0308644,40.749505,1009,Willow Avenue,,,,,,,
-74.031165,40.7496105,1010,Willow Avenue,,,,,,,
-74.0312093,40.7496183,1010,Willow Avenue,,,,,,,
-74.0312531,40.749626,1010,Willow Avenue,,,,,,,
-74.0312968,40.7496337,1010,Willow Avenue,,,,,,,
-74.0306818,40.7496172,1011,Willow Avenue,,,,,,,
-74.0306905,40.7495884,1011,Willow Avenue,,,,,,,
-74.0306992,40.7495596,1011,Willow Avenue,,,,,,,
-74.0307525,40.7496296,1011,Willow Avenue,,,,,,,
-74.0307612,40.7496008,1011,Willow Avenue,,,,,,,
-74.0307698,40.749572,1011,Willow Avenue,,,,,,,
-74.0308231,40.7496418,1011,Willow Avenue,,,,,,,
-74.0308318,40.7496131,1011,Willow Avenue,,,,,,,
-74.0308405,40.7495843,1011,Willow Avenue,,,,,,,
-74.0312871,40.7496881,1012,Willow Avenue,,,,,,,
-74.0306812,40.7496701,1013,Willow Avenue,,,,,,,
-74.0312705,40.7497427,1014,Willow Avenue,,,,,,,
-74.0306653,40.7497223,1015,Willow Avenue,,,,,,,
-74.0310902,40.7498745,1016,Willow Avenue,,,,,,,
-74.0311011,40.7498387,1016,Willow Avenue,,,,,,,
-74.0311066,40.7498208,1016,Willow Avenue,,,,,,,
-74.0311176,40.7497849,1016,Willow Avenue,,,,,,,
-74.031123,40.7497669,1016,Willow Avenue,,,,,,,
-74.0311551,40.7498859,1016,Willow Avenue,,,,,,,
-74.0311714,40.7498322,1016,Willow Avenue,,,,,,,
-74.0311769,40.7498143,1016,Willow Avenue,,,,,,,
-74.0311824,40.7497963,1016,Willow Avenue,,,,,,,
-74.0311878,40.7497783,1016,Willow Avenue,,,,,,,
-74.0312168,40.7498968,1016,Willow Avenue,,,,,,,
-74.0312222,40.7498789,1016,Willow Avenue,,,,,,,
-74.0312331,40.749843,1016,Willow Avenue,,,,,,,
-74.0312386,40.7498251,1016,Willow Avenue,,,,,,,
-74.0312441,40.7498072,1016,Willow Avenue,,,,,,,
-74.0306456,40.7497872,1017,Willow Avenue,,,,,,,
-74.0306229,40.7498616,1019,Willow Avenue,,,,,,,
-74.0312089,40.7499446,1020,Willow Avenue,,,,,,,
-74.0306037,40.7499248,1021,Willow Avenue,,,,,,,
-74.0305878,40.7499772,1023,Willow Avenue,,,,,,,
-74.0311857,40.750021,1024,Willow Avenue,,,,,,,
-74.0305721,40.7500284,1025,Willow Avenue,,,,,,,
-74.0305562,40.7500803,1027,Willow Avenue,,,,,,,
-74.0311632,40.750095,1028,Willow Avenue,,,,,,,
-74.0305405,40.7501324,1029,Willow Avenue,,,,,,,
-74.031115,40.7502532,1034,Willow Avenue,,,,,,,
-74.0310993,40.7503047,1036,Willow Avenue,,,,,,,
-74.0310839,40.7503552,1038,Willow Avenue,,,,,,,
-74.0310654,40.750416,1040,Willow Avenue,,,,,,,
-74.0310176,40.7511098,1100,Willow Avenue,,,,,,,
-74.030047,40.7511895,1115,Willow Avenue,,,,,,,
-74.0300631,40.7511376,1115,Willow Avenue,,,,,,,
-74.0300714,40.7511939,1115,Willow Avenue,,,,,,,
-74.0300875,40.7511419,1115,Willow Avenue,,,,,,,
-74.0300956,40.7511982,1115,Willow Avenue,,,,,,,
-74.0301112,40.7509817,1115,Willow Avenue,,,,,,,
-74.0301116,40.7511463,1115,Willow Avenue,,,,,,,
-74.0301356,40.7509861,1115,Willow Avenue,,,,,,,
-74.0301358,40.7511506,1115,Willow Avenue,,,,,,,
-74.0301433,40.7508778,1115,Willow Avenue,,,,,,,
-74.0301598,40.7509904,1115,Willow Avenue,,,,,,,
-74.0301599,40.7511549,1115,Willow Avenue,,,,,,,
-74.0301681,40.7512111,1115,Willow Avenue,,,,,,,
-74.0301758,40.7509384,1115,Willow Avenue,,,,,,,
-74.0301841,40.7511592,1115,Willow Avenue,,,,,,,
-74.0301841,40.7513243,1115,Willow Avenue,,,,,,,
-74.0302003,40.7512718,1115,Willow Avenue,,,,,,,
-74.0302081,40.750999,1115,Willow Avenue,,,,,,,
-74.030216,40.7508908,1115,Willow Avenue,,,,,,,
-74.0302241,40.7509471,1115,Willow Avenue,,,,,,,
-74.0302322,40.7510033,1115,Willow Avenue,,,,,,,
-74.0302564,40.7510076,1115,Willow Avenue,,,,,,,
-74.0302645,40.7510639,1115,Willow Avenue,,,,,,,
-74.0302805,40.751012,1115,Willow Avenue,,,,,,,
-74.0302885,40.7509037,1115,Willow Avenue,,,,,,,
-74.0303126,40.750908,1115,Willow Avenue,,,,,,,
-74.0307146,40.7514524,1124,Willow Avenue,,,,,,,
-74.0299608,40.7515734,1125,Willow Avenue,,,,,,,
-74.0306957,40.7515127,1126,Willow Avenue,,,,,,,
-74.9683377,39.6374235,1126,Willow Avenue,,,,,,,
-74.030023,40.7515845,1127,Willow Avenue,,,,,,,
-74.9689419,39.6372656,1127,Willow Avenue,,,,,,,
-74.0306776,40.7515708,1128,Willow Avenue,,,,,,,
-74.0306599,40.7516275,1130,Willow Avenue,,,,,,,
-74.0305006,40.7516609,1132,Willow Avenue,,,,,,,
-74.0305281,40.7516654,1132,Willow Avenue,,,,,,,
-74.0305568,40.7516702,1132,Willow Avenue,,,,,,,
-74.0305855,40.7516749,1132,Willow Avenue,,,,,,,
-74.0306143,40.7516797,1132,Willow Avenue,,,,,,,
-74.030643,40.7516844,1132,Willow Avenue,,,,,,,
-74.0306717,40.7516891,1132,Willow Avenue,,,,,,,
-74.0298695,40.7517824,1201,Willow Avenue,,,,,,,
-74.0298782,40.751751,1201,Willow Avenue,,,,,,,
-74.0299047,40.7517881,1201,Willow Avenue,,,,,,,
-74.0299135,40.7517566,1201,Willow Avenue,,,,,,,
-74.0299416,40.751794,1201,Willow Avenue,,,,,,,
-74.0299503,40.7517625,1201,Willow Avenue,,,,,,,
-74.0299804,40.7518002,1201,Willow Avenue,,,,,,,
-74.0299891,40.7517688,1201,Willow Avenue,,,,,,,
-74.0300223,40.751807,1201,Willow Avenue,,,,,,,
-74.0300311,40.7517755,1201,Willow Avenue,,,,,,,
-74.0296328,40.7526981,1221,Willow Avenue,,,,,,,
-74.0295246,40.7530947,1301,Willow Avenue,,,,,,,
-74.0294716,40.7532701,1313,Willow Avenue,,,,,,,
-74.0295153,40.753278,1313,Willow Avenue,,,,,,,
-74.0295335,40.7532193,1313,Willow Avenue,,,,,,,
-74.0295591,40.7532858,1313,Willow Avenue,,,,,,,
-74.0295773,40.7532271,1313,Willow Avenue,,,,,,,
-74.0295929,40.7552405,1500,Willow Avenue,,,,,,,
-74.0284543,40.7566855,1601,Willow Avenue,,,,,,,
-74.0287684,40.75818,1718,Willow Avenue,,,,,,,
-74.0288305,40.7584316,1720,Willow Avenue,,,,,,,
-74.0283971,40.7588856,1802,Willow Avenue,,,,,,,
-74.028374,40.7589593,1804,Willow Avenue,,,,,,,
-74.0283018,40.7593414,1816,Willow Avenue,,,,,,,
-74.0282752,40.7594255,1818,Willow Avenue,,,,,,,
-74.0282509,40.7595021,1820,Willow Avenue,,,,,,,
-74.0282261,40.7595805,1822,Willow Avenue,,,,,,,
-74.0275482,40.7596929,1829,Willow Avenue,,,,,,,
-74.0281805,40.7598752,1834,Willow Avenue,,,,,,,
-74.0270487,40.7605897,1900,Willow Avenue,,,,,,,
-74.0278802,40.7603535,1907,Willow Avenue,,,,,,,
-74.0278423,40.760415,1909,Willow Avenue,,,,,,,
-74.0278101,40.7604715,1911,Willow Avenue,,,,,,,
-74.0277646,40.7605328,1913,Willow Avenue,,,,,,,
-74.027706,40.7606214,1915,Willow Avenue,,,,,,,
-75.0905628,39.8190398,2020,Willow Avenue,,,,,,,
-74.4195775,40.5839876,2386,Willow Avenue,,,,,,,
-74.4190501,40.5840751,2390,Willow Avenue,,,,,,,
-74.4182597,40.5846254,2427,Willow Avenue,,,,,,,
-74.4181119,40.5845498,2431,Willow Avenue,,,,,,,
-74.4179576,40.5844791,2435,Willow Avenue,,,,,,,
-74.4177984,40.5844061,2439,Willow Avenue,,,,,,,
-74.4180002,40.5839331,2440,Willow Avenue,,,,,,,
-74.417614,40.5843216,2443,Willow Avenue,,,,,,,
-74.4177688,40.583827,2444,Willow Avenue,,,,,,,
-74.4174982,40.583702,2450,Willow Avenue,,,,,,,
-74.455821,40.4691161,701,Willow Avenue (A & B),,,,,,,
-74.4418516,40.611225,177,Willow Avenue Extension,,,,,,,
-74.4420806,40.6113563,181,Willow Avenue Extension,,,,,,,
-74.443834,40.6124024,235,Willow Avenue Extension,,,,,,,
-74.4440809,40.612481,239,Willow Avenue Extension,,,,,,,
-74.4444425,40.6125292,245,Willow Avenue Extension,,,,,,,
-74.6389884,40.717356,WILLOW AVENUE (LAKE),Willow Avenue (Lake),,,,,,,
-74.9266163,38.9440751,WILLOW AVE & RAILROAD,Willow Avenue & Railroad,,,,,,,
-74.0423872,40.907931,WILLOW AVE REAR,Willow Avenue Rear,,,,,,,
-73.9955,40.299559,395,Willow Avenue (Rear),,,,,,,
-74.3152833,40.6516661,41,Willow Avenue - Rear,,,,,,,
